STATION_NAME_FULL,STATION_NAME,EMS_ID,NAPS_ID,SERIAL,CITY,LAT,LONG,ELEVATION,STATUS_DESCRIPTION,OWNER,REGION,AIRZONE,STATUS,OPENED,CLOSED
100 Mile House,100 Mile House,M116006,,374,100 Mile House,51.6542,-121.375,1000,NON OPERATIONAL,ENV,05 - Cariboo,,OFF,1992-11-11,
100 Mile House BCAC,100 Mile House BCAC,E218444,,228,100 MIle House,51.6461,-121.937,0,NON OPERATIONAL,ENV,05 - Cariboo,,OFF,2010-02-16,
Abbotsford A Columbia Street,Abbotsford A Columbia Street,E289309,,428,Abbotsford,49.0215,-122.3266,65,METRO VANCOUVER,MVRD,02 - Lower Mainland,Lower Fraser Valley,ON,2012-07-25,
Abbotsford A Columbia Street Met,Abbotsford A Columbia Street,E289309,,429,Abbotsford,49.0215,-122.3266,65,METRO VANCOUVER,MVRD,02 - Lower Mainland,Lower Fraser Valley,ON,2012-07-25,
Abbotsford Airport,Abbotsford Airport,0310081,,306,Abbotsford,49.0306,-122.3761,40,NON OPERATIONAL,MVRD,02 - Lower Mainland,,OFF,1978-01-07,
Abbotsford Airport Walmsley Road,Abbotsford Airport Walmsley Road,E246240,,262,Aldergrove,49.0235,-122.343,65,METRO VANCOUVER NON OPERATIONAL,MVRD,02 - Lower Mainland,,OFF,2001-05-01,
Abbotsford Central,Abbotsford Central,E238212,,261,Abbotsford,49.0428,-122.3097,80,METRO VANCOUVER,MVRD,02 - Lower Mainland,Lower Fraser Valley,ON,1998-09-17,
Abbotsford Downtown,Abbotsford Downtown,E217029,,307,Abbotsford,49.0492,-122.2922,20,NON OPERATIONAL,MVRD,02 - Lower Mainland,,OFF,1992-01-05,
Agassiz Municipal Hall,Agassiz Municipal Hall,E293810,,442,Agassiz,49.238032,-121.762334,23,METRO VANCOUVER,MVRD,02 - Lower Mainland,Lower Fraser Valley,ON,2013-06-03,
Agassiz Municipal Hall Met,Agassiz Municipal Hall,E293810,,443,Agassiz,49.238032,-121.762334,23,METRO VANCOUVER,MVRD,02 - Lower Mainland,Lower Fraser Valley,ON,2013-06-07,
Ainsworth 100 Mile Met_60,Ainsworth 100 Mile,E230617,,22,100 Mile House,51.6534,-121.366,1063,NON OPERATIONAL,ENV,05 - Cariboo,,OFF,1998-09-30,
Alex Fraser Bridge,Alex Fraser Bridge,E288890,,426,Delta,49.1592,-122.9422,160,METRO VANCOUVER NON OPERATIONAL,MVRD,02 - Lower Mainland,,OFF,2012-01-01,
Anmore,Anmore,0310167,,308,Anmore,49.3111,-122.8583,174,METRO VANCOUVER NON OPERATIONAL,MVRD,02 - Lower Mainland,,OFF,1980-01-08,
Annacis Island,Annacis Island,M110514,,309,Vancouver,49.1597,-122.9422,160,NON OPERATIONAL,ENV,02 - Lower Mainland,,OFF,1986-08-09,
Annacis Island Metro Van Inst Shop,Annacis Island Metro Van Inst Shop,E289310,,427,Delta,49.1658,-122.9606,6,METRO VANCOUVER NON OPERATIONAL,MVRD,02 - Lower Mainland,,OFF,2012-03-12,
Armstrong Riverside,Armstrong Riverside,E259717,,218,Armstrong,50.3833,-119.2283,416,NON OPERATIONAL,ENV,03 - Southern Interior,,OFF,2010-02-16,
Ashcroft Ranch,Ashcroft Ranch,E296510,,459,None,50.704444,-121.34083,565,METRO VANCOUVER NON OPERATIONAL,MVRD,02 - Lower Mainland,,OFF,2014-02-28,
Bessborough 237 Road,Bessborough 237 Road,E295729,104303,450,None,55.791944,-120.483611,665,OPERATIONAL,INDUSTRY,07 - Omineca-Peace,Northeast,ON,2013-11-26,
Birchbank Golf Course,Birchbank Golf Course,E257435,102230,520,Trail,49.157855,-117.73312,483,OPERATIONAL,INDUSTRY,04 - Kootenay,Southern Interior,ON,2016-01-01,
Birchbank Golf Course_60,Birchbank Golf Course,E257435,102230,97,Trail,49.157855,-117.73312,483,OPERATIONAL,INDUSTRY,04 - Kootenay,Southern Interior,ON,2004-08-11,
Birchbank Golf Course_OLD,Birchbank Golf Course,E257435,102230,274,Genelle,49.1581,-117.7331,527,NON OPERATIONAL,INDUSTRY,04 - Kootenay,,OFF,2010-07-15,
Blueberry River First Nation School,Blueberry River First Nation School,E306063,,510,Buick,56.701655,-121.10429,675,NON OPERATIONAL,ENV,07 - Omineca-Peace,,OFF,2016-06-23,
Blueberry River First Nation School_60,Blueberry River First Nation School,E306063,,513,Buick,56.701655,-121.10429,675,NON OPERATIONAL,ENV,07 - Omineca-Peace,,OFF,2016-06-23,
Boston Bar RCMP Station,Boston Bar RCMP Station,E238240,,310,Boston Bar,49.8658,-121.4425,180,NON OPERATIONAL,ENV,02 - Lower Mainland,,OFF,1999-08-07,
Brilliant,Brilliant,M114017,,349,Castlegar,49.3217,-117.6403,0,NON OPERATIONAL,ENV,04 - Kootenay,,OFF,1993-12-05,
Buick Creek Elementary School,Buick Creek Elementary School,Buick OGC CAMEL,,504,Buick,56.759244,-121.274225,0,BC OGC MOBILE,BC OGC,07 - Omineca-Peace,,OFF,2015-02-04,2016-07-21
Burnaby Burmount,Burnaby Burmount,E244515,,251,Burnaby,49.2667,-122.9356,101,METRO VANCOUVER,MVRD,02 - Lower Mainland,Lower Fraser Valley,ON,2000-01-01,
Burnaby Confederation Park,Burnaby Confederation Park,0310178,,311,Burnaby,49.2833,-123.0208,101,METRO VANCOUVER NON OPERATIONAL,MVRD,02 - Lower Mainland,,OFF,1977-01-08,
Burnaby Edmonds,Burnaby Edmonds,E207420,,312,Burnaby,49.2056,-122.9519,113,METRO VANCOUVER NON OPERATIONAL,MVRD,02 - Lower Mainland,,OFF,1987-01-06,
Burnaby Kensington Park,Burnaby Kensington Park,0310177,,242,Burnaby,49.2794,-122.9711,133,METRO VANCOUVER,MVRD,02 - Lower Mainland,Lower Fraser Valley,ON,1975-01-03,
Burnaby Mountain,Burnaby Mountain,E206270,,313,Burnaby,49.2797,-122.9222,360,METRO VANCOUVER,MVRD,02 - Lower Mainland,Lower Fraser Valley,ON,1984-01-01,
Burnaby North Eton,Burnaby North Eton,E244517,,253,Burnaby,49.2875,-123.0078,70,METRO VANCOUVER,MVRD,02 - Lower Mainland,Lower Fraser Valley,ON,2000-01-01,
Burnaby South,Burnaby South,E207418,,249,Burnaby,49.2153,-122.9856,122,METRO VANCOUVER,MVRD,02 - Lower Mainland,Lower Fraser Valley,ON,1987-01-06,
Burns Lake Fire Centre,Burns Lake Fire Centre,E225267,105201,436,Burns Lake,54.2307,-125.7643,652,OPERATIONAL,ENV,06 - Skeena,Central Interior,ON,2013-02-15,
Burns Lake Fire Centre_60,Burns Lake Fire Centre,E225267,105201,104,Burns Lake,54.230731,-125.764354,710,OPERATIONAL,ENV,06 - Skeena,Central Interior,ON,1997-01-03,
Burns Lake Sheraton East Met_60,Burns Lake Sheraton East,E292669,,439,Burns Lake,54.1527,-125.4495,679,OPERATIONAL,INDUSTRY,06 - Skeena,Central Interior,ON,2013-02-21,
Campbell River Tyee Spit,Campbell River Tyee Spit,E229798,102802,24,Campbell River,50.0486,-125.2556,3,NON OPERATIONAL,INDUSTRY,01 - Vancouver Island,,OFF,1997-01-12,
Castlegar Columbia Basin Trust Bldg,Castlegar Columbia Basin Trust Bldg,E274406,,224,Castlegar,49.3256,-117.6667,458,NON OPERATIONAL,ENV,04 - Kootenay,,OFF,2010-02-16,
Castlegar Hospital,Castlegar Hospital,0260021,,26,Castlegar,49.3144,-117.6605,455,OPERATIONAL,INDUSTRY,04 - Kootenay,Southern Interior,ON,1978-01-02,
Castlegar Met,Castlegar,M114217,,350,Castlegar,49.3139,-117.6578,451,NON OPERATIONAL,ENV,04 - Kootenay,,OFF,1985-10-20,
Castlegar Zinio Park,Castlegar Zinio Park,E286369,103502,419,Castlegar,49.317698,-117.661527,407,OPERATIONAL,ENV,04 - Kootenay,Southern Interior,ON,2011-07-15,
Celgar Pulp Met_60,Celgar Pulp,M114009,,98,Castlegar,49.3333,-117.7188,449,OPERATIONAL,INDUSTRY,04 - Kootenay,Southern Interior,ON,1994-12-05,
Central Saanich Stellys Cross Road,Central Saanich Stellys Cross Road,E253229,,6,Victoria,48.58,-123.4422,60,NON OPERATIONAL,ENV,01 - Vancouver Island,,OFF,2003-08-09,
Central Saanich Stellys CrossRoad_60,Central Saanich Stellys CrossRoad,E253229,,166,Victoria,48.58,-123.4422,60,NON OPERATIONAL,ENV,01 - Vancouver Island,,OFF,2003-08-09,
Chemainus Bare Point_60,Chemainus Bare Point,E284969,,411,Chemainus,48.9225,-123.7039,33,NON OPERATIONAL,INDUSTRY,01 - Vancouver Island,,OFF,2010-12-20,
Chetwynd Airport Westgate Road,Chetwynd Airport Westgate Road,Chetwynd OGC CAMEL,,555,Chetwynd,55.682131,-121.646006,0,BC OGC MOBILE,BC OGC,07 - Omineca-Peace,,OFF,2018-09-19,
Chetwynd Airport Westgate Road_SG,Chetwynd Airport Westgate Road_SG,Chetwynd OGC CAMEL,,508,Chetwynd,55.682131,-121.646006,0,BC OGC MOBILE,BC OGC,07 - Omineca-Peace,,OFF,2014-09-22,2015-01-11
Chetwynd SW BCOGC MAML,Chetwynd SW BCOGC MAML,E299970,,470,None,55.682128,-121.646108,600,NON OPERATIONAL,INDUSTRY,07 - Omineca-Peace,,OFF,2014-09-22,2014-12-01
Chilliwack Airport,Chilliwack Airport,E220891,,500,Chilliwack,49.1561,-121.9406,10,METRO VANCOUVER,MVRD,02 - Lower Mainland,Lower Fraser Valley,ON,1994-05-18,
Chilliwack Airport_Old,Chilliwack Airport,0310173,,315,Chilliwack,49.1558,-121.9436,0,NON OPERATIONAL,MVRD,02 - Lower Mainland,,OFF,1979-01-02,
Chilliwack Airport_OLD,Chilliwack Airport,M110517,,314,Chilliwack,49.1511,-121.9469,15,NON OPERATIONAL,MVRD,02 - Lower Mainland,,OFF,1994-05-17,
Chilliwack Airport_OLD,Chilliwack Airport,E220891,,245,Chilliwack,49.1561,-121.9406,10,METRO VANCOUVER NON OPERATIONAL,MVRD,02 - Lower Mainland,,OFF,1994-05-18,
Chilliwack Works Yard,Chilliwack Works Yard,E206612,,316,Chilliwack,49.1519,-121.9511,10,METRO VANCOUVER NON OPERATIONAL,MVRD,02 - Lower Mainland,,OFF,1984-01-01,
Colwood City Hall,Colwood City Hall,E240337,100308,284,Colwood,48.42389,-123.49278,75,OPERATIONAL,ENV,01 - Vancouver Island,Georgia Strait,ON,2000-01-02,
Colwood City Hall_60,Colwood City Hall,E240337,100308,553,Colwood,48.42389,-123.49278,75,NON OPERATIONAL,ENV,01 - Vancouver Island,,OFF,2018-09-06,
Coquitlam Douglas College,Coquitlam Douglas College,E242892,,260,Coquitlam,49.2881,-122.7914,61,METRO VANCOUVER,MVRD,02 - Lower Mainland,Lower Fraser Valley,ON,2000-01-10,
Courtenay Elementary School,Courtenay Elementary School,E285829,107100,414,Courtenay,49.682603,-124.996222,27,OPERATIONAL,ENV,01 - Vancouver Island,Georgia Strait,ON,2011-05-20,
Courtenay Elementary School_60,Courtenay Elementary School,E285829,107100,526,Courtenay,49.682603,-124.996222,27,OPERATIONAL,ENV,01 - Vancouver Island,,OFF,2016-12-08,
Cranbrook BC Ambulance Building,Cranbrook BC Ambulance Building,E273763,,225,Cranbrook,49.5144,-115.7631,942,NON CONTINUOUS,ENV,04 - Kootenay,,OFF,2010-02-16,
Cranbrook Forest Fire,Cranbrook Forest Fire,E242577,,351,Cranbrook,49.5319,-115.7536,891,NON OPERATIONAL,ENV,04 - Kootenay,,OFF,2000-08-20,
Cranbrook Muriel Baxter,Cranbrook Muriel Baxter,E313510,101904,550,Cranbrook,49.507103,-115.753682,941,OPERATIONAL,ENV,04 - Kootenay,Southern Interior,ON,2018-08-20,
Cranbrook Muriel Baxter_60,Cranbrook Muriel Baxter,E313510,101904,551,Cranbrook,49.507103,-115.753682,941,NON OPERATIONAL,ENV,04 - Kootenay,,OFF,2018-08-16,
Cranbrook PR3,Cranbrook PR3,E220203,,352,Cranbrook,49.51,-115.7592,970,NON OPERATIONAL,ENV,04 - Kootenay,,OFF,1994-04-20,
Cranbrook Swimming Pool,Cranbrook Swimming Pool,E206243,,353,Cranbrook,49.5117,-115.7569,940,NON OPERATIONAL,ENV,04 - Kootenay,,OFF,1989-01-08,
Creston Flats_60,Creston Flats,E256215,,99,Creston,49.1339,-116.5528,529,NON OPERATIONAL,ENV,04 - Kootenay,,OFF,2007-05-31,
Creston PC School,Creston PC School,E221199,101801,29,Creston,49.0944,-116.5125,609,NON OPERATIONAL,ENV,04 - Kootenay,,OFF,1994-10-27,2015-09-10
Creston PC School Met_60,Creston PC School,M114018,,31,Creston,49.0944,-116.5125,609,NON OPERATIONAL,ENV,04 - Kootenay,,OFF,1995-02-01,
Creston Piper Farms,Creston Piper Farms,E259398,,32,Creston,49.0119,-116.5333,418,NON OPERATIONAL,ENV,04 - Kootenay,,OFF,2008-12-01,
Creston South Hanson Farm,Creston South Hanson Farm,E262799,,354,Creston,49.0439,-116.5439,525,NON OPERATIONAL,ENV,04 - Kootenay,,OFF,2006-04-15,
Crofton Community Hall,Crofton Community Hall,E206379,,285,Crofton,48.8647,-123.6481,73,NON OPERATIONAL,ENV,01 - Vancouver Island,,OFF,1986-01-07,
Crofton Elementary,Crofton Elementary,E316070,,564,Crofton,48.86,-123.64388889,38,OPERATIONAL,INDUSTRY,01 - Vancouver Island,Georgia Strait,ON,2019-04-01,
Crofton Escarpment Way,Crofton Escarpment Way,E273443,106700,38,Crofton,48.838,-123.6552,142,NON OPERATIONAL,INDUSTRY,01 - Vancouver Island,,OFF,2008-09-18,
Crofton Georgia Hts,Crofton Georgia Hts,E296370,106702,458,Crofton,48.849635,-123.637041,150,NON OPERATIONAL,INDUSTRY,01 - Vancouver Island,,OFF,2014-02-18,2018-12-20
Crofton Met_60,Crofton,M101004,,37,Crofton,48.8802,-123.6458,20,NON OPERATIONAL,INDUSTRY,01 - Vancouver Island,,OFF,1991-03-15,
Crofton South,Crofton South,E220218,,286,Crofton,48.8389,-123.6528,140,NON OPERATIONAL,INDUSTRY,01 - Vancouver Island,,OFF,1994-07-22,
Crofton Substation,Crofton Substation,E220217,106701,39,Crofton,48.874529,-123.653929,22,OPERATIONAL,INDUSTRY,01 - Vancouver Island,Georgia Strait,ON,1994-08-19,
Crofton West,Crofton West,E220219,,287,Crofton,48.8694,-123.6944,10,NON OPERATIONAL,INDUSTRY,01 - Vancouver Island,,OFF,1994-08-07,
CSpice Met_01,CSpice Met_01,Station 574,,574,Hope,49.594,-121.099,0,OPERATIONAL,ENV,02 - Lower Mainland,Lower Fraser Valley,ON,2020-03-20,
CSpice_Met_60,CSpice,Station 573,,573,Hope,49.594,-121.099,0,OPERATIONAL,ENV,02 - Lower Mainland,Lower Fraser Valley,ON,2020-03-11,
Cumberland Firehall,Cumberland Firehall,E306481,,518,Cumberland,49.618667,-125.031444,169,E-BAM NON-OPERATIONAL,ENV,01 - Vancouver Island,,OFF,2016-08-25,
Dawson Creek 17th Street,Dawson Creek 17th Street,E237254,,393,Dawson Creek,55.7839,-120.2533,710,NON OPERATIONAL,INDUSTRY,07 - Omineca-Peace,,OFF,1999-04-28,
Dawson Creek Harpers,Dawson Creek Harpers,E237253,,394,Dawson Creek,55.7878,-120.2717,710,NON OPERATIONAL,INDUSTRY,07 - Omineca-Peace,,OFF,1999-04-28,
Dawson Creek LPC Upwind,Dawson Creek LPC Upwind,E237252,,395,Dawson Creek,55.7906,-120.3014,695,NON OPERATIONAL,INDUSTRY,07 - Omineca-Peace,,OFF,1999-04-28,
Dawson Creek Northern Lights College,Dawson Creek Northern Lights College,Dawson OGC CAMEL,,506,Dawson Creek,55.747586,-120.230519,0,BC OGC MOBILE,BC OGC,07 - Omineca-Peace,,OFF,2014-04-01,2014-07-07
Delta Lindsey Place Trailer,Delta Lindsey Place Trailer,TRAILER_01,,561,Delta,49.165894,-122.960928,,MOBILE,ENV,02 - Lower Mainland,,OFF,2019-02-08,
Doig River Cultural Centre,Doig River Cultural Centre,E295893,105503,454,Doig River,56.5780833,-120.49748,552,NON OPERATIONAL,ENV,07 - Omineca-Peace,,OFF,2013-12-10,2015-12-02
Doig River Cultural Centre Met_60,Doig River Cultural Centre,E295893,105503,462,Doig River,56.5780833,-120.49748,552,NON OPERATIONAL,ENV,07 - Omineca-Peace,,OFF,2014-05-05,2016-12-02
Duncan Cairnsmore,Duncan Cairnsmore,E277329,104803,33,Duncan,48.784854,-123.715846,62,NON OPERATIONAL,ENV,01 - Vancouver Island,,OFF,2009-08-17,2018-01-15
Duncan Cairnsmore_60,Duncan Cairnsmore,E277329,104803,523,Duncan,48.784854,-123.715846,62,NON OPERATIONAL,ENV,01 - Vancouver Island,,OFF,2016-11-28,2018-01-15
Duncan College Street,Duncan College Street,E311128,104804,542,Duncan,48.786114,-123.717307,32,OPERATIONAL,ENV,01 - Vancouver Island,Georgia Strait,ON,2018-02-01,
Duncan College Street_60,Duncan College Street,E311128,104804,537,Duncan,48.786114,-123.717307,32,NON OPERATIONAL,ENV,01 - Vancouver Island,,OFF,2017-12-04,
Duncan Deykin Avenue,Duncan Deykin Avenue,E234670,104801,40,Duncan,48.80255,-123.646402,62,OPERATIONAL,INDUSTRY,01 - Vancouver Island,Georgia Strait,ON,1998-01-11,
Duncan Koksilah,Duncan Koksilah,E242620,,288,Duncan,48.758,-123.6889,0,NON OPERATIONAL,ENV,01 - Vancouver Island,,OFF,2000-09-26,
Duncan Mobile,Duncan Mobile,E223361,,289,Duncan,48.9128,-123.7814,61,NON OPERATIONAL,ENV,01 - Vancouver Island,,OFF,1996-01-07,
Duncan Mobile Transfer Station,Duncan Mobile Transfer Station,E242166,,290,Duncan,49.8036,-123.6897,244,NON OPERATIONAL,ENV,01 - Vancouver Island,,OFF,2000-01-07,
Eagle Ridge,Eagle Ridge,0310169,,317,Port Moody,49.2847,-122.9017,52,METRO VANCOUVER NON OPERATIONAL,MVRD,02 - Lower Mainland,,OFF,2010-10-15,
Elk Falls Dogwood,Elk Falls Dogwood,E222520,102801,522,Campbell River,50.018425,-125.2484,63,OPERATIONAL,INDUSTRY,01 - Vancouver Island,Georgia Strait,ON,2016-11-18,
Elk Falls Dogwood_OLD,Elk Falls Dogwood,E222520,102801,41,Campbell River,50.018425,-125.2844,63,NON OPERATIONAL,INDUSTRY,01 - Vancouver Island,,OFF,1995-12-01,
Elk Falls Pulp Mill_60,Elk Falls Pulp Mill,E251329,,44,Campbell River,50.0733,-125.2869,15,NON OPERATIONAL,INDUSTRY,01 - Vancouver Island,,OFF,2003-11-02,
Elkford Rocky Mountain Elementary School,Elkford Rocky Mountain Elementary School,E290310,103011,585,Elkford,50.0077944,-114.93342,1333,OPERATIONAL,INDUSTRY,04 - Kootenay,Southern Interior,ON,2021-12-01,
Endako,Endako,E227290,,379,Fraser Lake,54.03,-125.08,0,NON OPERATIONAL,ENV,06 - Skeena,,OFF,1997-07-14,
Esquimalt Graving Dock_60,Esquimalt Graving Dock,E231478,100312,47,Victoria,48.4374,-123.422,23,NON OPERATIONAL,ENV,01 - Vancouver Island,,OFF,2004-08-29,2013-09-17
Farmington Community Hall,Farmington Community Hall,E295892,104304,455,Farmington,55.9132326,-120.53157,696,OPERATIONAL,INDUSTRY,07 - Omineca-Peace,Northeast,ON,2017-12-05,
Farmington Community Hall Met_60,Farmington Community Hall,E295892,104304,464,Farmington,55.9132326,-120.53157,696,OPERATIONAL,INDUSTRY,07 - Omineca-Peace,Northeast,ON,2017-12-05,
Farmington MAML,Farmington MAML,E283242,,275,Farmington,55.904722,-120.51583,686,MOBILE NON OPERATIONAL,ENV,07 - Omineca-Peace,,OFF,2010-08-13,
Fort Nelson Brucker Ranch,Fort Nelson Brucker Ranch,E239298,,396,Fort Nelson,58.5778,-122.5894,518,NON OPERATIONAL,INDUSTRY,07 - Omineca-Peace,,OFF,1999-10-27,
Fort Nelson Chalo School_60,Fort Nelson Chalo School,E250350,,50,Fort Nelson,58.748,-122.6622,380,NON OPERATIONAL,INDUSTRY,07 - Omineca-Peace,,OFF,2002-12-30,
Fort Nelson Jackfish,Fort Nelson Jackfish,0770706,,398,Fort Nelson,58.5883,-122.6644,468,NON OPERATIONAL,INDUSTRY,07 - Omineca-Peace,,OFF,1993-01-04,
Fort Nelson Muskawa Industrial Area,Fort Nelson Muskawa Industrial Area,0770704,,397,Fort Nelson,58.7419,-122.6808,371,NON OPERATIONAL,INDUSTRY,07 - Omineca-Peace,,OFF,1993-01-04,
Fort Nelson Townsite,Fort Nelson Townsite,0770705,,399,Fort Nelson,58.8103,-122.7042,408,NON OPERATIONAL,INDUSTRY,07 - Omineca-Peace,,OFF,1993-01-04,
Fort St John 85th Avenue_60,Fort St John 85th Avenue,E304550,,489,Fort St John,56.231792,-120.853895,685,BC HYDRO,INDUSTRY-BCH,07 - Omineca-Peace,Northeast,ON,2015-11-04,
Fort St John Hospital,Fort St John Hospital,FSJ OGC CAMEL,,505,Fort St John,56.257717,-120.809353,0,BC OGC MOBILE,BC OGC,07 - Omineca-Peace,,OFF,2014-01-22,2014-04-01
Fort St John Key Learning Centre,Fort St John Key Learning Centre,E299830,105504,469,Fort St John,56.244722,-120.856111,679,OPERATIONAL,ENV,07 - Omineca-Peace,Northeast,ON,2015-02-12,
Fort St John North Camp B_Amb_60,Fort St John North Camp B_Amb,E306480,,516,Fort St John,56.200998,-120.9026,581,BC HYDRO,INDUSTRY-BCH,07 - Omineca-Peace,,OFF,2016-07-07,
Fort St John North Camp C_60,Fort St John North Camp C,E309527,,533,Fort St John,56.2032887,-120.90108,584,BC HYDRO,INDUSTRY-BCH,07 - Omineca-Peace,Northeast,ON,2017-08-23,
Fort St John North Camp C_Met_60,Fort St John North Camp C,E309527,,517,Fort St John,56.200998,-120.9026,581,BC HYDRO,INDUSTRY-BCH,07 - Omineca-Peace,Northeast,ON,2016-07-07,
Fort St John NP Cultural Centre,Fort St John NP Cultural Centre,E243516,105501,52,Fort St John,56.2458,-120.8489,695,NON OPERATIONAL,ENV,07 - Omineca-Peace,,OFF,2001-03-08,2015-10-15
Fort St John Old Fort_60,Fort St John Old Fort,E304470,,487,Fort St John,56.200587,-120.825713,421,BC HYDRO,INDUSTRY-BCH,07 - Omineca-Peace,Northeast,ON,2015-10-30,
Fraser Lake Endako Mines_60,Fraser Lake Endako Mines,E295949,,452,Fraser Lake,54.034444,-125.095833,1005,OPERATIONAL,INDUSTRY,06 - Skeena,Central Interior,ON,2013-12-01,
Genelle,Genelle,E222140,,355,Trail,49.2075,-117.6969,440,NON OPERATIONAL,INDUSTRY,04 - Kootenay,,OFF,1995-09-14,
Gibsons Firehall,Gibsons Firehall,E217061,,318,Gibsons,49.4117,-123.5131,0,NON OPERATIONAL,INDUSTRY,02 - Lower Mainland,,OFF,1992-05-05,
Gibsons Municipal Hall,Gibsons Municipal Hall,E308306,,529,Gibsons,49.40054,-123.50913,30,NON OPERATIONAL,ENV,02 - Lower Mainland,,OFF,2017-04-06,
Gibsons Townhall,Gibsons Townhall,E217062,,319,Gibsons,49.4003,-123.5094,0,NON OPERATIONAL,INDUSTRY,02 - Lower Mainland,,OFF,2010-10-15,
Glendale Met_60,Glendale,M111068,,54,Williams Lake,52.1522,-122.1736,628,NON OPERATIONAL,ENV,05 - Cariboo,,OFF,1990-09-26,
Gold River Annex,Gold River Annex,E225265,,291,Gold River,49.7111,-126.05,100,NON OPERATIONAL,INDUSTRY,01 - Vancouver Island,,OFF,1997-01-01,
Gold River Pumphouse,Gold River Pumphouse,0110203,,292,Gold River,49.6914,-126.1178,3,NON OPERATIONAL,INDUSTRY,01 - Vancouver Island,,OFF,1977-01-02,
Golden Bear,Golden Bear,M120001,,380,Telegraph Creek,58.2056,-132.2875,980,NON OPERATIONAL,INDUSTRY,06 - Skeena,,OFF,1993-01-10,
Golden CPR,Golden CPR,E256894,,356,Golden,51.27,-116.9308,857,NON OPERATIONAL,ENV,04 - Kootenay,,OFF,2004-08-09,
Golden Golf Course,Golden Golf Course,E256895,,357,Golden,51.3325,-117.0067,795,NON OPERATIONAL,ENV,04 - Kootenay,,OFF,2010-12-06,
Golden Helipad,Golden Helipad,E292149,103202,433,Golden,51.2975,-116.966,780,OPERATIONAL,ENV,04 - Kootenay,Southern Interior,ON,2013-01-22,
Golden Hospital,Golden Hospital,E235070,,17,Golden,51.2958,-116.9716,773,NON OPERATIONAL,ENV,04 - Kootenay,,OFF,1999-11-02,
Golden Lady Grey School Met_60,Golden Lady Grey School,E243003,,19,Golden,51.2956,-116.9717,773,OPERATIONAL,ENV,04 - Kootenay,Southern Interior,ON,2000-11-22,
Golden Townsite,Golden Townsite,E256315,,358,Golden,51.2978,-116.9672,855,NON OPERATIONAL,ENV,04 - Kootenay,,OFF,2004-12-07,
Goldstream Provincial Park,Goldstream Provincial Park,E282349,,270,Victoria,48.4583,-123.5575,0,NON OPERATIONAL,INDUSTRY,01 - Vancouver Island,,OFF,2010-07-01,
Grand Forks Airport Met_60,Grand Forks Airport,E262779,,56,Grand Forks,49.0147,-118.4269,520,OPERATIONAL,ENV,04 - Kootenay,Southern Interior,ON,2006-04-13,
Grand Forks City Hall,Grand Forks City Hall,E263701,104101,57,Grand Forks,49.031168,-118.439088,517,OPERATIONAL,ENV,04 - Kootenay,Southern Interior,ON,2006-07-27,
Grand Forks Mobile,Grand Forks Mobile,E223885,,342,Grand Forks,49.0278,-118.4375,525,NON OPERATIONAL,ENV,03 - Southern Interior,,OFF,1996-10-29,
Groundbirch MAML,Groundbirch MAML,E282369,,268,Groundbirch,55.7283,-120.8919,0,MOBILE NON OPERATIONAL,ENV,07 - Omineca-Peace,,OFF,2010-06-22,
Harmac Cedar,Harmac Cedar,E221800,,293,Nanaimo,49.12,-123.8514,31,NON OPERATIONAL,INDUSTRY,01 - Vancouver Island,,OFF,1995-04-21,
Harmac Cedar Woobank,Harmac Cedar Woobank,E225377,102103,453,Nanaimo,49.114165,-123.850165,25,OPERATIONAL,INDUSTRY,01 - Vancouver Island,Georgia Strait,ON,1997-02-21,
Harmac Cedar Woobank_60,Harmac Cedar Woobank,E225377,102103,58,Nanaimo,49.1216,-123.86,47,NON OPERATIONAL,INDUSTRY,01 - Vancouver Island,,OFF,1997-02-21,
Harmac Nanaimo Duke Point_60,Harmac Nanaimo Duke Point,E299790,,468,Nanaimo,49.14522,-123.87873,10,NON OPERATIONAL,INDUSTRY,01 - Vancouver Island,,OFF,2014-10-03,
Harmac Nanaimo Dukepoint,Harmac Nanaimo Dukepoint,E299790,,559,Nanaimo,49.14522,-123.87873,10,OPERATIONAL,INDUSTRY,01 - Vancouver Island,Georgia Strait,ON,2014-10-03,
Harmac Pacific,Harmac Pacific,E221801,,294,Nanaimo,49.1578,-123.845,32,NON OPERATIONAL,INDUSTRY,01 - Vancouver Island,,OFF,1995-04-21,
Harmac Pacific Met_60,Harmac Pacific,M102038,,60,Nanaimo,49.1352,-123.8475,23,OPERATIONAL,INDUSTRY,01 - Vancouver Island,Georgia Strait,ON,1995-02-25,
Harmac Treatment Pond_60,Harmac Treatment Pond,E226983,,61,Nanaimo,49.1361,-123.8613,86,NON OPERATIONAL,INDUSTRY,01 - Vancouver Island,,OFF,1997-01-07,
Hazelton NWCC,Hazelton NWCC,E255713,,234,New Hazelton,55.2619,-127.6506,286,NON OPERATIONAL,ENV,06 - Skeena,,OFF,2010-03-15,
Hope Airport,Hope Airport,E223756,,257,Hope,49.3697,-121.4994,131,METRO VANCOUVER,MVRD,02 - Lower Mainland,Lower Fraser Valley,ON,1996-08-15,
Hope Firehall,Hope Firehall,E214615,,320,Hope,49.3796,-121.4416,0,NON OPERATIONAL,ENV,02 - Lower Mainland,,OFF,1991-05-23,
Hope Othello Compressor Station_60,Hope Othello Compressor Station,E254955,,64,Hope,49.3828,-121.3653,228,OPERATIONAL,INDUSTRY,02 - Lower Mainland,Lower Fraser Valley,ON,2004-02-23,
Horseshoe Bay,Horseshoe Bay,E275843,,269,West Vancouver,49.3686,-123.2766,65,METRO VANCOUVER,MVRD,02 - Lower Mainland,Georgia Strait,ON,2010-06-21,
Horseshoe Bay Met,Horseshoe Bay,M104271,,322,Vancouver,49.3738,-123.2797,0,NON OPERATIONAL,ENV,02 - Lower Mainland,,OFF,1985-04-24,
Horseshoe Bay_OLD,Horseshoe Bay,E207302,,321,Vancouver,49.3786,-123.2794,0,NON OPERATIONAL,MVRD,02 - Lower Mainland,,OFF,1987-12-17,
Houston Firehall,Houston Firehall,M107004,105101,437,Houston,54.3972,-126.645,594,OPERATIONAL,ENV,06 - Skeena,Central Interior,ON,2013-02-19,
Houston Firehall_60,Houston Firehall,M107004,105101,3,Houston,54.398289,-126.641604,602,OPERATIONAL,ENV,06 - Skeena,Central Interior,ON,1994-11-21,
Hudsons Hope Dudley Drive,Hudsons Hope Dudley Drive,E321711,,578,Hudsons Hope,56.02686,-121.91118,494,BC HYDRO,INDUSTRY-BCH,07 - Omineca-Peace,Northeast,ON,2020-10-01,
Kamloops Aberdeen,Kamloops Aberdeen,E303935,,479,Kamloops,50.63694,-120.37207,857,NON OPERATIONAL,ENV,03 - Southern Interior,,OFF,2015-10-16,
Kamloops Aberdeen_60,Kamloops Aberdeen,E303935,,481,Kamloops,50.63694,-120.37207,857,NON OPERATIONAL,ENV,03 - Southern Interior,,OFF,2015-10-16,
Kamloops Blackwell Dairy Biosolids,Kamloops Blackwell Dairy Biosolids,E306334,,514,Kamloops,50.65919,-120.12198,349,E-BAM NON-OPERATIONAL,ENV,03 - Southern Interior,,OFF,2016-07-15,
Kamloops Brocklehurst,Kamloops Brocklehurst,E206898,,5,Kamloops,50.6975,-120.3969,347,NON OPERATIONAL,ENV,03 - Southern Interior,,OFF,1987-03-02,
Kamloops Brocklehurst BAM,Kamloops Brocklehurst BAM,E206898,,416,Kamloops,50.6975,-120.3969,347,NON OPERATIONAL,ENV,03 - Southern Interior,,OFF,2011-06-06,
Kamloops Brocklehurst_60,Kamloops Brocklehurst,M116003,,66,Kamloops,50.6975,-120.3975,347,NON OPERATIONAL,ENV,03 - Southern Interior,,OFF,1996-01-11,
Kamloops Dalhousie,Kamloops Dalhousie,E266222,,219,Kamloops,50.6772,-120.3375,536,NON OPERATIONAL,ENV,03 - Southern Interior,,OFF,2010-02-16,
Kamloops Federal Building,Kamloops Federal Building,0605008,100401,267,Kamloops,50.67477,-120.334016,381,OPERATIONAL,ENV,03 - Southern Interior,Southern Interior,ON,1978-03-03,
Kamloops Fire Station #2,Kamloops Fire Station #2,E286009,100402,415,Kamloops,50.7025,-120.3944,348,NON OPERATIONAL,ENV,03 - Southern Interior,,OFF,2011-06-03,
Kamloops Wildlife Park,Kamloops Wildlife Park,E261178,,220,Kamloops,50.755,-120.145,364,NON OPERATIONAL,ENV,03 - Southern Interior,,OFF,2010-02-16,
Kelly Lake MAML,Kelly Lake MAML,E284909,,412,Kelly Lake,55.2606,-120.0356,867,MOBILE NON OPERATIONAL,ENV,07 - Omineca-Peace,,OFF,2011-04-02,
Kelowna College,Kelowna College,0500886,100701,9,Kelowna,49.862336,-119.477367,347,OPERATIONAL,ENV,03 - Southern Interior,,OFF,1983-08-11,2019-06-03
Kelowna College_60,Kelowna College,0500886,100701,102,Kelowna,49.862336,-119.477367,347,OPERATIONAL,ENV,03 - Southern Interior,,OFF,1994-10-28,2019-06-03
Kelowna Johnson Bentley Pool,Kelowna Johnson Bentley Pool,E304350,,482,Kelowna,49.82698,-119.6239,400,E-BAM NON-OPERATIONAL,ENV,03 - Southern Interior,,OFF,2015-10-09,
Kelowna KLO Road,Kelowna KLO Road,E317850,100703,571,Kelowna,49.862119,-119.467461,350,OPERATIONAL,ENV,03 - Southern Interior,Southern Interior,ON,2019-09-03,
Kelowna Raymer Ave WWTP,Kelowna Raymer Ave WWTP,E316938,,567,Kelowna,49.86412,-119.48396,0,NON OPERATIONAL,ENV,03 - Southern Interior,,OFF,2019-06-05,
Keremeos Municipal Office,Keremeos Municipal Office,E272963,,68,Keremeos,49.2047,-119.8275,423,NON OPERATIONAL,ENV,03 - Southern Interior,,OFF,2008-01-08,
Keremeos Municipal Office_60,Keremeos Municipal Office,E272963,,70,Keremeos,49.2047,-119.8275,423,NON OPERATIONAL,ENV,03 - Southern Interior,,OFF,2008-01-08,
Kimberely Lois Creek,Kimberely Lois Creek,0440401,,359,Kimberely,49.7522,-115.985,0,NON OPERATIONAL,INDUSTRY,04 - Kootenay,,OFF,1991-01-06,
Kimberely Mine Shaft 24,Kimberely Mine Shaft 24,0440402,,360,Kimberely,49.7147,-115.9967,1500,NON OPERATIONAL,INDUSTRY,04 - Kootenay,,OFF,1991-01-06,
Kitimat Alcan Dock,Kitimat Alcan Dock,E206671,,381,Kitimat,53.9883,-128.695,0,NON OPERATIONAL,INDUSTRY,06 - Skeena,,OFF,1987-01-23,
Kitimat City Centre MAML,Kitimat City Centre MAML,E283510,,282,Kitimat,54.0553,-128.6544,30,MOBILE NON OPERATIONAL,ENV,06 - Skeena,,OFF,2010-09-15,
Kitimat Eurocan Dock_60,Kitimat Eurocan Dock,M106008,,72,Kitimat,53.995,-128.6783,10,NON OPERATIONAL,INDUSTRY,06 - Skeena,,OFF,1996-07-10,
Kitimat Haisla Village,Kitimat Haisla Village,E282711,103905,271,Kitimat,53.973228,-128.650768,5,OPERATIONAL,INDUSTRY,06 - Skeena,Coastal,ON,2010-01-07,
Kitimat Haul Road,Kitimat Haul Road,E223616,103902,73,Kitimat,54.029194,-128.70269,11,OPERATIONAL,INDUSTRY,06 - Skeena,Coastal,ON,1996-01-11,
Kitimat Haul Road Met_60,Kitimat Haul Road,E223616,103902,75,Kitimat,54.029194,-128.70269,11,OPERATIONAL,INDUSTRY,06 - Skeena,Coastal,ON,1996-10-04,
Kitimat Industrial Ave,Kitimat Industrial Ave,E320051,,576,Kitimat,54.061,-128.688,21,OPERATIONAL,INDUSTRY,06 - Skeena,Coastal,ON,2020-05-09,
Kitimat Kildala School,Kitimat Kildala School,0660601,,382,Kitimat,54.0542,-128.6722,0,NON OPERATIONAL,INDUSTRY,06 - Skeena,,OFF,1988-01-05,
Kitimat Minette,Kitimat Minette,E207182,,383,Kitimat,54.0325,-128.7122,110,NON OPERATIONAL,INDUSTRY,06 - Skeena,,OFF,1987-01-06,
Kitimat Rail,Kitimat Rail,E223827,103903,76,Kitimat,54.0611,-128.6872,75,NON OPERATIONAL,INDUSTRY,06 - Skeena,,OFF,1996-09-10,
Kitimat Rio Tinto Alcan KMP Camp_60,Kitimat Rio Tinto Alcan KMP Camp,E277529,,279,Kitimat,54.0194,-128.7042,17,NON OPERATIONAL,INDUSTRY,06 - Skeena,,OFF,2010-08-18,
Kitimat Riverlodge,Kitimat Riverlodge,E216670,103901,77,Kitimat,54.05389,-128.671436,18,OPERATIONAL,INDUSTRY,06 - Skeena,Coastal,ON,1995-04-05,
Kitimat Saunders,Kitimat Saunders,0660602,,384,Kitimat,54.0606,-128.6867,0,NON OPERATIONAL,INDUSTRY,06 - Skeena,,OFF,1987-01-06,
Kitimat Smeltersite Road,Kitimat Smeltersite Road,E290529,103906,431,Kitimat,54.018801,-128.700585,2,NON OPERATIONAL,INDUSTRY,06 - Skeena,,OFF,2012-08-14,2016-06-02
Kitimat Whitesail,Kitimat Whitesail,E223615,103904,78,Kitimat,54.066909,-128.639131,94,OPERATIONAL,INDUSTRY,06 - Skeena,Coastal,ON,1996-12-07,
Kitimat Whitesail Met_60,Kitimat Whitesail,E223615,103904,80,Kitimat,54.066909,-128.639131,94,OPERATIONAL,INDUSTRY,06 - Skeena,Coastal,ON,1996-11-29,
Kitimat Yacht Club_60,Kitimat Yacht Club,E286269,,418,Kitimat,54,-128.692,2,OPERATIONAL,INDUSTRY,06 - Skeena,Coastal,ON,2011-06-14,
Kitwanga School Met_60,Kitwanga School,E255714,,82,Kitwanga,55.1172,-128.0158,253,NON OPERATIONAL,ENV,06 - Skeena,,OFF,2004-10-25,
Kwoen Gas Plant_60,Kwoen Gas Plant,E248774,,85,Chetwynd,55.3778,-121.7047,665,OPERATIONAL,INDUSTRY,07 - Omineca-Peace,,OFF,2002-08-09,
Ladysmith Health Centre,Ladysmith Health Centre,E306482,,519,Ladysmith,48.995639,-123.827861,121,E-BAM NON-OPERATIONAL,ENV,01 - Vancouver Island,,OFF,2016-08-26,
Lake Cowichan Fire Hall,Lake Cowichan Fire Hall,E303794,,478,Duncan,48.828333,-124.054167,178,E-BAM NON-OPERATIONAL,ENV,01 - Vancouver Island,,OFF,2015-09-17,2016-06-02
Langdale Elementary,Langdale Elementary,E222778,105301,86,Langdale,49.438848,-123.479185,90,OPERATIONAL,INDUSTRY,02 - Lower Mainland,Georgia Strait,ON,1995-01-12,
Langdale Ferry Terminal_60,Langdale Ferry Terminal,M104273,,88,Langdale,49.4344,-123.4691,15,NON OPERATIONAL,ENV,02 - Lower Mainland,,OFF,1987-11-09,
Langdale YMCA,Langdale YMCA,E206987,,323,Gibsons,49.45,-123.4678,0,NON OPERATIONAL,INDUSTRY,02 - Lower Mainland,,OFF,1987-01-07,
Langford Dogwood School,Langford Dogwood School,E249735,,295,Victoria,48.453,-123.5043,80,NON OPERATIONAL,ENV,01 - Vancouver Island,,OFF,2002-12-11,
Langford Lakewood  School_60,Langford Lakewood  School,E264882,100316,91,Victoria,48.4658,-123.5075,100,NON OPERATIONAL,ENV,01 - Vancouver Island,,OFF,2007-08-02,
Langford Lakewood Elementary School,Langford Lakewood Elementary School,E264882,100316,14,Victoria,48.4658,-123.5075,100,NON OPERATIONAL,ENV,01 - Vancouver Island,,OFF,2007-08-02,
Langley Central,Langley Central,E209178,,256,Langley,49.0956,-122.5669,82,METRO VANCOUVER,MVRD,02 - Lower Mainland,Lower Fraser Valley,ON,1992-06-06,
Langley Peterson,Langley Peterson,M110515,,324,Langley,49.0872,-122.5733,110,NON OPERATIONAL,ENV,02 - Lower Mainland,,OFF,1987-02-19,
Langley Peterson School,Langley Peterson School,E206707,,328,Langley,49.0875,-122.5722,0,NON OPERATIONAL,ENV,02 - Lower Mainland,,OFF,1986-12-06,
Lavington Baptist Church,Lavington Baptist Church,E304590,,490,Coldstream,50.23081,-119.10674,537,OPERATIONAL,ENV,03 - Southern Interior,,OFF,2015-11-09,
Lavington Pinnacle Pellets,Lavington Pinnacle Pellets,E310508,,536,Vernon,50.23372,-119.09766,529,E-BAM NON-OPERATIONAL,ENV,03 - Southern Interior,,OFF,2017-11-21,
Mackenzie,Mackenzie,0770709,,92,Mackenzie,55.3363,-123.0955,645,NON OPERATIONAL,INDUSTRY,07 - Omineca-Peace,,OFF,1991-01-09,
MAML North Road,MAML North Road,E,,62,Victoria,,,0,MOBILE NON OPERATIONAL,ENV,01 - Vancouver Island,,OFF,2009-12-24,
Manalta,Manalta,E230577,,385,Telkwa,54.645,-127.1203,0,NON OPERATIONAL,INDUSTRY,06 - Skeena,,OFF,1998-01-20,
Maple Ridge Golden Ears School,Maple Ridge Golden Ears School,E232245,,258,Maple Ridge,49.215,-122.5819,100,METRO VANCOUVER,MVRD,02 - Lower Mainland,Lower Fraser Valley,ON,1998-01-02,
Merritt City Hall,Merritt City Hall,0605040,,343,Merritt,50.1128,-121.7889,500,NON OPERATIONAL,ENV,03 - Southern Interior,,OFF,1998-02-09,
Merritt Gillis House,Merritt Gillis House,E264161,,221,Merritt,50.1806,-120.5556,602,NON OPERATIONAL,ENV,03 - Southern Interior,,OFF,2010-02-16,
Merritt Granite-Garcia Mobile,Merritt Granite-Garcia Mobile,E237431,,344,Merritt,50.1128,-121.7889,500,NON OPERATIONAL,ENV,03 - Southern Interior,,OFF,1999-05-14,
Merritt Parcel Street,Merritt Parcel Street,E264682,,557,Merritt,50.105,-120.7921,603,E-BAM NON-OPERATIONAL,ENV,03 - Southern Interior,,OFF,2018-10-12,
Merritt Parcel Street Met_60,Merritt Parcel Street,E264682,,94,Merritt,50.105,-120.7921,603,OPERATIONAL,ENV,03 - Southern Interior,Southern Interior,ON,2006-04-12,
Merritt Tolko SW,Merritt Tolko SW,E264842,,100,Merritt,50.2139,-120.8403,619,NON OPERATIONAL,ENV,03 - Southern Interior,,OFF,2009-02-10,
Mission School Works Yard,Mission School Works Yard,E302130,,474,Mission,49.14149,-122.311078,74,METRO VANCOUVER,MVRD,02 - Lower Mainland,Lower Fraser Valley,ON,2014-08-07,
Mission School Works Yard Met,Mission School Works Yard,E302130,,476,Mission,49.14149,-122.311078,74,METRO VANCOUVER,MVRD,02 - Lower Mainland,Lower Fraser Valley,ON,2015-05-20,
Moricetown MAML,Moricetown MAML,E277629,,215,Moricetown,,,0,MOBILE NON OPERATIONAL,ENV,06 - Skeena,,OFF,2009-10-22,
Nanaimo Labieux Road,Nanaimo Labieux Road,E229797,102102,10,Nanaimo,49.20083,-123.99389,121,OPERATIONAL,ENV,01 - Vancouver Island,Georgia Strait,ON,1997-01-12,
Nelson,Nelson,M114216,,361,Nelson,49.4928,-117.2969,538,NON OPERATIONAL,ENV,04 - Kootenay,,OFF,1985-10-23,
Nelson Kutenai Place,Nelson Kutenai Place,E258315,103302,89,Nelson,49.4908,-117.2952,542,NON OPERATIONAL,ENV,04 - Kootenay,,OFF,2005-03-23,2015-04-23
New Hazelton School Met_60,New Hazelton School,E260397,,96,New Hazelton,55.2452,-127.5861,321,NON OPERATIONAL,ENV,06 - Skeena,,OFF,2005-11-08,
New Westminster Sapperton Park,New Westminster Sapperton Park,E308566,,530,New Westminster,49.227045,-122.894487,45,METRO VANCOUVER,MVRD,02 - Lower Mainland,Lower Fraser Valley,ON,2015-11-01,
New Westminster Sapperton Park Met,New Westminster Sapperton Park,E308566,,531,New Westminster,49.227045,-122.894487,45,METRO VANCOUVER,MVRD,02 - Lower Mainland,Lower Fraser Valley,ON,2015-11-01,
North Burnaby Capitol Hill,North Burnaby Capitol Hill,E244516,,252,Burnaby,49.2878,-122.9856,200,METRO VANCOUVER,MVRD,02 - Lower Mainland,Lower Fraser Valley,ON,2000-01-01,
North Delta,North Delta,E207723,,246,Delta,49.1583,-122.9017,111,METRO VANCOUVER,MVRD,02 - Lower Mainland,Lower Fraser Valley,ON,1987-01-06,
North Nechako,North Nechako,E267442,,237,Prince George,53.9532,-122.8266,0,NON OPERATIONAL,ENV,07 - Omineca-Peace,,OFF,2010-03-15,
North Vancouver Mahon Park,North Vancouver Mahon Park,E209177,,255,North Vancouver,49.3239,-123.0836,80,METRO VANCOUVER,MVRD,02 - Lower Mainland,Lower Fraser Valley,ON,1990-04-01,
North Vancouver Second Narrows,North Vancouver Second Narrows,0310179,,243,North Vancouver,49.3017,-123.0203,15,METRO VANCOUVER,MVRD,02 - Lower Mainland,Lower Fraser Valley,ON,1977-01-04,
Northport Washington,Northport Washington,E222689,,362,Spokane,48.9256,-117.7797,420,NON OPERATIONAL,INDUSTRY,04 - Kootenay,,OFF,1995-12-21,
Oliver Firehall,Oliver Firehall,E270643,,101,Oliver,49.1775,-119.5856,305,NON OPERATIONAL,ENV,03 - Southern Interior,,OFF,2011-03-08,
Osoyoos Canada Customs,Osoyoos Canada Customs,E257415,,12,Osoyoos,49,-119.4625,308,NON OPERATIONAL,ENV,03 - Southern Interior,,OFF,2004-11-01,
Osoyoos Canada Customs_60,Osoyoos Canada Customs,E257415,,120,Osoyoos,49,-119.4625,308,NON OPERATIONAL,ENV,03 - Southern Interior,,OFF,2004-11-01,
Osoyoos Shaw Gardens,Osoyoos Shaw Gardens,E244775,,345,Osoyoos,49.0322,-119.4689,297,NON OPERATIONAL,INDUSTRY,03 - Southern Interior,,OFF,2001-01-08,
Parksville Ballenas School,Parksville Ballenas School,E312830,,548,Nanaimo,49.321787,-124.33824,141,E-BAM NON-OPERATIONAL,ENV,01 - Vancouver Island,,OFF,2018-06-25,
Peace Valley Attachie Flat Upper Terrace_60,Peace Valley Attachie Flat Upper Terrace,E304453,,485,Fort St John,56.231213,-121.41944,480,BC HYDRO,INDUSTRY-BCH,07 - Omineca-Peace,Northeast,ON,2015-10-28,
Peace Valley Attachie Flat Upper Terrace_Met_60,Peace Valley Attachie Flat Upper Terrace,E304453,,540,Fort St John,56.231213,-121.41944,480,BC HYDRO,INDUSTRY-BCH,07 - Omineca-Peace,Northeast,ON,2017-12-12,
Pemberton Clover Road,Pemberton Clover Road,E206167,,329,Pemberton,122.7897,50.3225,0,NON OPERATIONAL,ENV,02 - Lower Mainland,,OFF,1984-01-10,
Pemberton Signal Hill Elementary,Pemberton Signal Hill Elementary,E260557,,121,Pemberton,50.31355,-122.78987,211,NON CONTINUOUS,ENV,02 - Lower Mainland,,OFF,2011-12-08,
Penticton Carmi School,Penticton Carmi School,0500869,,346,Penticton,49.4847,-119.5833,0,NON OPERATIONAL,ENV,03 - Southern Interior,,OFF,1983-11-21,
Penticton Industrial Place,Penticton Industrial Place,E317390,105604,569,Penticton,49.47753,-119.59578,342,OPERATIONAL,ENV,03 - Southern Interior,Southern Interior,ON,2019-07-15,
PG Marsulex Met_60,PG Marsulex,E278829,,233,Prince George,53.845173,-122.73395,595,OPERATIONAL,INDUSTRY,07 - Omineca-Peace,Central Interior,ON,2010-04-30,
PG Van Bien School,PG Van Bien School,0450232,,238,Prince George,53.8905,-122.7615,0,NON OPERATIONAL,ENV,07 - Omineca-Peace,,OFF,2010-03-15,
PG Western Acres,PG Western Acres,E259277,,239,Prince George,53.8215,-122.8758,753,NON OPERATIONAL,ENV,07 - Omineca-Peace,,OFF,2010-03-15,
Pine River Airport,Pine River Airport,0770701,,400,Chetwynd,55.6778,-121.625,0,NON OPERATIONAL,INDUSTRY,07 - Omineca-Peace,,OFF,1993-01-04,
Pine River Bend River Ranch,Pine River Bend River Ranch,0770702,,401,Chetwynd,55.6222,-121.9167,0,NON OPERATIONAL,INDUSTRY,07 - Omineca-Peace,,OFF,1993-01-04,
Pine River Gas Plant_60,Pine River Gas Plant,0770703,103702,107,Chetwynd,55.570022,-121.928814,1159,OPERATIONAL,INDUSTRY,07 - Omineca-Peace,Northeast,ON,1993-01-04,
Pine River Hasler_60,Pine River Hasler,E237631,103704,110,Chetwynd,55.601678,-121.99348,602,OPERATIONAL,INDUSTRY,07 - Omineca-Peace,Northeast,ON,1999-05-26,
Pitt Meadows,Pitt Meadows,M110510,,330,Pitt Meadows,49.2167,-122.7167,3,NON OPERATIONAL,ENV,02 - Lower Mainland,,OFF,1985-10-04,
Pitt Meadows Airport,Pitt Meadows Airport,E206169,,331,Pitt Meadows,49.2089,-122.7063,15,NON OPERATIONAL,MVRD,02 - Lower Mainland,,OFF,1985-01-03,
Pitt Meadows Meadowlands School,Pitt Meadows Meadowlands School,E232244,,501,Pitt Meadows,49.2453,-122.7089,20,METRO VANCOUVER,MVRD,02 - Lower Mainland,Lower Fraser Valley,ON,1998-01-02,
Pitt Meadows Meadowlands School_OLD,Pitt Meadows Meadowlands School,E232244,,250,Pitt Meadows,49.2453,-122.7089,20,METRO VANCOUVER NON OPERATIONAL,MVRD,02 - Lower Mainland,,OFF,1998-01-02,
Port Alberni,Port Alberni,0110258,,296,Port Alberni,49.2617,-124.8244,0,NON OPERATIONAL,ENV,01 - Vancouver Island,,OFF,1978-01-04,
Port Alberni BC Hydro,Port Alberni BC Hydro,E244234,,297,Port Alberni,49.25,-124.8092,10,NON OPERATIONAL,INDUSTRY,01 - Vancouver Island,,OFF,2001-06-15,
Port Alberni Elementary,Port Alberni Elementary,E273483,102602,263,Port Alberni,49.261014,-124.806628,21,OPERATIONAL,INDUSTRY,01 - Vancouver Island,Georgia Strait,ON,2010-05-31,
Port Alberni Firehall MAML,Port Alberni Firehall MAML,E296090,,457,Port Alberni,49.243056,-124.796667,44,MOBILE NON OPERATIONAL,ENV,01 - Vancouver Island,,OFF,2014-01-27,
Port Alberni Met,Port Alberni,M103335,,298,Port Alberni,49.2456,-124.8014,51,NON OPERATIONAL,ENV,01 - Vancouver Island,,OFF,1989-01-18,
Port Alberni Port Authority,Port Alberni Port Authority,E310612,,541,Port Alberni,49.227798,-124.81254,1,OPERATIONAL,INDUSTRY,01 - Vancouver Island,,OFF,2017-12-13,
Port Alberni Townsite,Port Alberni Townsite,E228065,102601,111,Port Alberni,49.2344,-124.8147,10,NON OPERATIONAL,INDUSTRY,01 - Vancouver Island,,OFF,1997-09-02,
Port Alice Hospital,Port Alice Hospital,0110101,,299,Port Alice,50.425,-127.4792,0,NON OPERATIONAL,ENV,01 - Vancouver Island,,OFF,1990-01-05,
Port Alice Lake Road,Port Alice Lake Road,E221822,107001,112,Port Alice,50.3668,-127.4333,152,NON OPERATIONAL,INDUSTRY,01 - Vancouver Island,,OFF,1995-03-22,2015-06-23
Port Alice Mill_60,Port Alice Mill,E234430,,114,Port Alice,50.3842,-127.2505,88,NON OPERATIONAL,INDUSTRY,01 - Vancouver Island,,OFF,1998-01-11,
Port Alice Trailer,Port Alice Trailer,0110501,,115,Port Alice,50.3892,-127.4553,10,NON OPERATIONAL,INDUSTRY,01 - Vancouver Island,,OFF,1980-07-22,
Port Coquitlam North,Port Coquitlam North,E207421,,332,Port Coquitlam,49.28,-122.7342,32,METRO VANCOUVER NON OPERATIONAL,MVRD,02 - Lower Mainland,,OFF,1987-01-06,
Port Edward Elementary,Port Edward Elementary,0660606,,386,Prince Rupert,54.2244,-130.2833,35,NON OPERATIONAL,INDUSTRY,06 - Skeena,,OFF,1993-05-03,
Port Edward Mill,Port Edward Mill,E243949,,325,Port Edward,54.2336,-130.2922,30,NON OPERATIONAL,INDUSTRY,06 - Skeena,,OFF,2001-05-20,
Port Edward Pacific,Port Edward Pacific,E225184,,387,Port Edward,54.2208,-130.2897,10,NON OPERATIONAL,INDUSTRY,06 - Skeena,,OFF,1997-03-01,
Port Mellon_60,Port Mellon,E226338,,117,Gibsons,49.5228,-123.4822,3,OPERATIONAL,INDUSTRY,02 - Lower Mainland,Georgia Strait,ON,1997-05-27,
Port Moody Rocky Point Park,Port Moody Rocky Point Park,0310162,,244,Port Moody,49.2808,-122.8492,15,METRO VANCOUVER,MVRD,02 - Lower Mainland,Lower Fraser Valley,ON,1977-01-03,
Port Moody Rocky Point Park Met,Port Moody Rocky Point Park,0310162,,475,Port Moody,49.2808,-122.8492,15,METRO VANCOUVER,MVRD,02 - Lower Mainland,Lower Fraser Valley,ON,2015-01-01,
Porteau Cove,Porteau Cove,E206986,,333,Britannia Beach,49.5586,-123.2325,0,NON OPERATIONAL,INDUSTRY,02 - Lower Mainland,,OFF,1987-08-06,
Pouce Coupe 200 Road BCOGC CAMEL,Pouce Coupe 200 Road BCOGC CAMEL,E307124,,521,Pouce Coupe,55.634323,-120.132649,833,BC OGC MOBILE,BC OGC,07 - Omineca-Peace,,OFF,2016-09-11,2018-05-28
Powell River Cranberry Centre,Powell River Cranberry Centre,E207286,,334,Powell River,49.5586,-123.2325,0,NON OPERATIONAL,ENV,02 - Lower Mainland,,OFF,1987-10-15,
Powell River Cranberry Lake_60,Powell River Cranberry Lake,0220204,102301,119,Powell River,49.866905,-124.521819,209,NON OPERATIONAL,INDUSTRY,02 - Lower Mainland,,OFF,1990-07-01,2018-02-13
Powell River Hospital,Powell River Hospital,0220206,,335,Powell River,49.8736,-124.5458,0,NON OPERATIONAL,INDUSTRY,02 - Lower Mainland,,OFF,1990-01-07,
Powell River James Thomson School,Powell River James Thomson School,E271963,102303,122,Powell River,49.889299,-124.5624,125,OPERATIONAL,INDUSTRY,02 - Lower Mainland,Georgia Strait,ON,2008-06-15,
Powell River Lawn Bowling Club,Powell River Lawn Bowling Club,0110063,,123,Powell River,49.8708,-124.5478,20,NON OPERATIONAL,INDUSTRY,02 - Lower Mainland,,OFF,1978-07-12,
Powell River Pacifica Met_60,Powell River Pacifica,E238705,,126,Powell River,49.8742,-124.5556,45,OPERATIONAL,INDUSTRY,02 - Lower Mainland,Georgia Strait,ON,2000-07-19,
Powell River Townsite Helipad,Powell River Townsite Helipad,E271964,,127,Powell River,49.8747,-124.5541,62,OPERATIONAL,INDUSTRY,02 - Lower Mainland,Georgia Strait,ON,2008-06-21,
Powell River Wildwood_60,Powell River Wildwood,0220205,102302,130,Powell River,49.886894,-124.558104,136,OPERATIONAL,INDUSTRY,02 - Lower Mainland,,OFF,1990-01-07,2019-10-16
"Power Cons,New Recovery Boiler Stack","Power Cons,New Recovery Boiler Stack",E215732,,365,Castlegar,49.3353,-117.7278,0,NON OPERATIONAL,INDUSTRY,04 - Kootenay,,OFF,1993-01-07,
"Power Consolidated, New Lime Kiln","Power Consolidated, New Lime Kiln",E215733,,364,Castlegar,49.3353,-117.7278,0,NON OPERATIONAL,INDUSTRY,04 - Kootenay,,OFF,1993-01-07,
"Power Consolidated,#2 Power Boiler","Power Consolidated,#2 Power Boiler",E102292,,363,Castlegar,49.3353,-117.7278,0,NON OPERATIONAL,INDUSTRY,04 - Kootenay,,OFF,1993-01-07,
Prince George 18th Avenue MAML,Prince George 18th Avenue MAML,E309666,,535,Prince George,53.906819,-122.79525,608,MOBILE NON OPERATIONAL,ENV,07 - Omineca-Peace,,OFF,2017-09-07,
Prince George BC Rail Warehouse,Prince George BC Rail Warehouse,E224013,100203,132,Prince George,53.871,-122.743,590,NON OPERATIONAL,INDUSTRY,07 - Omineca-Peace,,OFF,1996-09-28,2015-11-06
Prince George CBC Transmitter,Prince George CBC Transmitter,E209179,,133,Prince George,53.90339,-122.703963,733,NON OPERATIONAL,INDUSTRY,07 - Omineca-Peace,,OFF,1995-01-04,
Prince George Denicola Ranch_60,Prince George Denicola Ranch,E283370,100213,281,Prince George,53.9353,-122.6814,581,NON OPERATIONAL,INDUSTRY,07 - Omineca-Peace,,OFF,2010-08-01,2012-11-01
Prince George District Energy Building,Prince George District Energy Building,E309446,,532,Prince George,53.916844,-122.742703,572,E-BAM NON-OPERATIONAL,ENV,07 - Omineca-Peace,,OFF,2017-05-17,
Prince George Exploration Place,Prince George Exploration Place,E293670,100214,528,Prince George,53.905139,-122.734049,576,OPERATIONAL,INDUSTRY,07 - Omineca-Peace,Central Interior,ON,2017-03-01,
Prince George Exploration Place Trailer_60,Prince George Exploration Place Trailer,E283369,,280,Prince George,53.9053,-122.7344,576,NON OPERATIONAL,INDUSTRY,07 - Omineca-Peace,,OFF,2010-08-01,
Prince George Exploration Place_60,Prince George Exploration Place,E293670,100214,444,Prince George,53.905139,-122.734049,576,OPERATIONAL,INDUSTRY,07 - Omineca-Peace,Central Interior,ON,2013-06-27,
Prince George Foreman Flats,Prince George Foreman Flats,0450325,,402,Prince George,53.9339,-122.6822,578,NON OPERATIONAL,INDUSTRY,07 - Omineca-Peace,,OFF,1982-11-06,
Prince George Foreman Flats_60,Prince George Foreman Flats,M109940,,403,Prince George,53.9333,-122.6827,578,NON OPERATIONAL,ENV,07 - Omineca-Peace,,OFF,1985-01-17,
Prince George Gladstone School,Prince George Gladstone School,0450270,100205,134,Prince George,53.8592,-122.7633,583,NON OPERATIONAL,INDUSTRY,07 - Omineca-Peace,,OFF,1985-02-28,2015-11-12
Prince George Gladstone School_60,Prince George Gladstone School,0450270,100205,136,Prince George,53.8592,-122.7633,583,NON OPERATIONAL,ENV,07 - Omineca-Peace,,OFF,1985-02-28,
Prince George Glenview School Met_60,Prince George Glenview School,E224014,,138,Prince George,53.996,-122.776,750,NON OPERATIONAL,ENV,07 - Omineca-Peace,,OFF,1996-12-11,
Prince George Hart Highlands,Prince George Hart Highlands,E225868,,404,Prince George,53.9894,-122.7858,740,NON OPERATIONAL,ENV,07 - Omineca-Peace,,OFF,1997-04-04,
Prince George Hwy 16/97 MAML,Prince George Hwy 16/97 MAML,E277370,,214,Prince George,53.8963,-122.7666,595,MOBILE NON OPERATIONAL,ENV,07 - Omineca-Peace,,OFF,2009-03-09,
Prince George Jail,Prince George Jail,0450322,,139,Prince George,53.908018,-122.713337,616,OPERATIONAL,INDUSTRY,07 - Omineca-Peace,Central Interior,ON,1981-01-01,
Prince George Jail_60,Prince George Jail,M109915,,405,Prince George,53.9069,-122.7133,623,NON OPERATIONAL,INDUSTRY,07 - Omineca-Peace,,OFF,1984-12-13,
Prince George Lakewood,Prince George Lakewood,0450324,100206,140,Prince George,53.9156,-122.7958,584,OPERATIONAL,INDUSTRY,07 - Omineca-Peace,Central Interior,ON,1982-04-15,
Prince George Lakewood_60,Prince George Lakewood,M109943,,406,Prince George,53.9153,-122.7961,584,NON OPERATIONAL,ENV,07 - Omineca-Peace,,OFF,1984-12-17,
Prince George Marsulex Acid Plant,Prince George Marsulex Acid Plant,E270963,100212,210,Prince George,53.8416,-122.7344,604,OPERATIONAL,INDUSTRY,07 - Omineca-Peace,Central Interior,ON,2008-01-03,
Prince George Northwood Met_60,Prince George Northwood,M109913,,142,Prince George,53.9675,-122.6908,577,NON OPERATIONAL,ENV,07 - Omineca-Peace,,OFF,1987-06-18,
Prince George Plaza 400,Prince George Plaza 400,0450307,100202,13,Prince George,53.91472,-122.74194,588,OPERATIONAL,ENV,07 - Omineca-Peace,Central Interior,ON,1979-11-05,
Prince George Plaza 400 Met_60,Prince George Plaza 400,0450307,100202,144,Prince George,53.91472,-122.74194,588,OPERATIONAL,ENV,07 - Omineca-Peace,Central Interior,ON,1984-12-17,
Prince George Plaza 400 URG,Prince George Plaza 400 URG,0451307,,423,Prince George,53.9147,-122.7419,601,NON OPERATIONAL,ENV,07 - Omineca-Peace,,OFF,2003-12-30,
Prince George Pulp Met_60,Prince George Pulp,M109914,,146,Prince George,53.9244,-122.6861,600,OPERATIONAL,ENV,07 - Omineca-Peace,Central Interior,OFF,1987-06-23,
Prince George Van Bien,Prince George Van Bien,0450232,,407,Prince George,53.8906,-122.7614,594,NON OPERATIONAL,INDUSTRY,07 - Omineca-Peace,,OFF,1982-06-15,
Prince George Van Bien_60,Prince George Van Bien,M109946,,408,Prince George,53.8892,-122.7603,594,NON OPERATIONAL,ENV,07 - Omineca-Peace,,OFF,1985-01-21,
Prince Rupert (Ambient),Prince Rupert (Ambient),0660607,,388,Prince Rupert,54.2967,-130.335,50,NON OPERATIONAL,INDUSTRY,06 - Skeena,,OFF,1993-01-02,
Prince Rupert (Met),Prince Rupert (Met),M106037,,326,Prince Rupert,54.2322,-130.2889,35,NON OPERATIONAL,ENV,06 - Skeena,,OFF,1990-02-10,
Prince Rupert Fairview,Prince Rupert Fairview,E312331,,546,Prince Rupert,54.292637,-130.35242,15,OPERATIONAL,INDUSTRY-PRPA,06 - Skeena,Coastal,ON,2017-07-26,
Prince Rupert Fairview_60,Prince Rupert Fairview,E312331,,547,Prince Rupert,54.292615,-130.352188,15,NON OPERATIONAL,INDUSTRY-BCH,06 - Skeena,,OFF,2017-07-26,
Prince Rupert Galloway Rapids,Prince Rupert Galloway Rapids,E231838,,327,Prince Rupert,54.2322,-130.2889,1,NON OPERATIONAL,INDUSTRY,06 - Skeena,,OFF,1998-10-04,
Prince Rupert Pineridge Elementary,Prince Rupert Pineridge Elementary,E312330,,545,Prince Rupert,54.298547,-130.337676,63,NON OPERATIONAL,INDUSTRY,06 - Skeena,,OFF,2016-12-16,2017-07-25
Prince Rupert Roosevelt Park School Met_60,Prince Rupert Roosevelt Park School,E288469,,425,Prince Rupert,54.3064,-130.3269,80,OPERATIONAL,ENV,06 - Skeena,Coastal,ON,2012-01-31,
Prince Rupert Seal Cove,Prince Rupert Seal Cove,E231657,,389,Prince Rupert,54.3311,-130.2761,2,NON OPERATIONAL,INDUSTRY,06 - Skeena,,OFF,1998-07-04,
Prince Rupert Westview MAML,Prince Rupert Westview MAML,E293649,,432,Prince Rupert,54.3047,-130.3436,33,MOBILE NON OPERATIONAL,ENV,06 - Skeena,,OFF,2013-04-14,
Quadra Island Cape Mudge Village,Quadra Island Cape Mudge Village,E266302,,148,Campbell River,50.0183,-125.1972,3,NON OPERATIONAL,INDUSTRY,01 - Vancouver Island,,OFF,2007-01-04,
Quadra Island Lighthouse,Quadra Island Lighthouse,E225378,104501,147,Campbell River,49.9983,-125.1956,2,NON OPERATIONAL,ENV,01 - Vancouver Island,,OFF,1997-02-21,
Qualicum Beach,Qualicum Beach,M102039,,300,Qualicum Beach,49.3472,-126.4444,57,NON OPERATIONAL,ENV,01 - Vancouver Island,,OFF,1994-02-17,
Qualicum Beach Jones Street_60,Qualicum Beach Jones Street,E233625,,150,Qualicum Beach,49.3385,-124.4516,98,NON OPERATIONAL,ENV,01 - Vancouver Island,,OFF,1999-06-01,
Queen Charlotte School,Queen Charlotte School,E273223,,235,None,53.2553,-132.0981,15,NON OPERATIONAL,ENV,06 - Skeena,,OFF,2010-03-15,
Quesnel Anderson Drive,Quesnel Anderson Drive,E318450,,572,Quesnel,52.968,-122.517,479,E-BAM OPERATIONAL,ENV,05 - Cariboo,Central Interior,ON,2019-10-24,
Quesnel CP Met_60,Quesnel CP,M111073,,153,Quesnel,52.9919,-122.4883,488,OPERATIONAL,ENV,05 - Cariboo,Central Interior,ON,1991-06-18,
Quesnel Johnston Avenue,Quesnel Johnston Avenue,E326405,101706,583,Quesnel,52.96936,-122.4934,505,OPERATIONAL,ENV,05 - Cariboo,Central Interior,ON,2021-11-05,
Quesnel Kinchant St MAML,Quesnel Kinchant St MAML,E320071,101705,575,Quesnel,52.97951,-122.49364,490,MOBILE,ENV,05 - Cariboo,Central Interior,OFF,2020-05-08,2021-11-03
Quesnel Linden Met_60,Quesnel Linden,M111065,,155,Quesnel,53.01,-122.5038,543,NON OPERATIONAL,ENV,05 - Cariboo,,OFF,1990-10-23,
Quesnel Maple Drive,Quesnel Maple Drive,E216667,101702,156,Quesnel,52.963,-122.4972,456,NON OPERATIONAL,INDUSTRY,05 - Cariboo,,OFF,1992-11-03,2015-08-14
Quesnel Pinecrest Centre,Quesnel Pinecrest Centre,E221885,,375,Quesnel,53.0028,-122.5122,500,NON OPERATIONAL,INDUSTRY,05 - Cariboo,,OFF,1995-05-23,
Quesnel Redwood,Quesnel Redwood,E314370,,558,Quesnel,52.97379,-122.45605,604,E-BAM NON-OPERATIONAL,ENV,05 - Cariboo,,OFF,2018-10-18,
Quesnel Senior Secondary,Quesnel Senior Secondary,E208096,101701,15,Quesnel,52.981686,-122.493227,490,NON OPERATIONAL,ENV,05 - Cariboo,,OFF,1990-02-14,2020-04-30
Quesnel Senior Secondary Met_60,Quesnel Senior Secondary,E208096,101701,158,Quesnel,52.9822,-122.4922,500,OPERATIONAL,ENV,05 - Cariboo,,OFF,1990-02-14,
Quesnel West Correlieu School,Quesnel West Correlieu School,E228064,101704,159,Quesnel,52.9664,-122.5167,0,NON OPERATIONAL,INDUSTRY,05 - Cariboo,,OFF,2000-11-17,2014-07-28
Quesnel West Fraser,Quesnel West Fraser,0550501,,376,Quesnel,53.0053,-122.4972,539,NON OPERATIONAL,INDUSTRY,05 - Cariboo,,OFF,1990-01-12,
Quick Mobile,Quick Mobile,E226268,,390,Quick,54.6214,-126.8511,552,NON OPERATIONAL,ENV,06 - Skeena,,OFF,1997-05-22,
Revelstoke Colbeck Road,Revelstoke Colbeck Road,Station 570,,570,Revelstoke,51.01452,-118.21907,452,E-BAM NON-OPERATIONAL,ENV,03 - Southern Interior,,OFF,2019-08-29,
Revelstoke Firehall,Revelstoke Firehall,E217680,,227,Revelstoke,50.9979,-118.1998,448,NON OPERATIONAL,ENV,04 - Kootenay,,OFF,2010-02-16,
Revelstoke Mt Begbie School,Revelstoke Mt Begbie School,E248021,103402,160,Revelstoke,50.9872,-118.2056,1500,NON OPERATIONAL,ENV,04 - Kootenay,,OFF,2002-02-15,2012-07-26
Revelstoke Mt Begbie School_60,Revelstoke Mt Begbie School,E248021,103402,162,Revelstoke,50.9872,-118.2056,1500,NON OPERATIONAL,ENV,04 - Kootenay,,OFF,2002-02-15,
Revelstoke_Trailer,Revelstoke_Trailer,TRAILER_02,,568,Revelstoke,51.012398,-118.214161,,MOBILE,ENV,04 - Kootenay,,OFF,2019-07-12,
Richmond East,Richmond East,E207419,,336,Richmond,49.1847,-123.1847,15,METRO VANCOUVER NON OPERATIONAL,MVRD,02 - Lower Mainland,,OFF,1987-01-06,
Richmond South,Richmond South,E207417,,248,Richmond,49.1414,-123.1083,15,METRO VANCOUVER,MVRD,02 - Lower Mainland,Lower Fraser Valley,ON,1986-01-07,
Robson,Robson,E207879,,163,Robson,49.337031,-117.698275,441,OPERATIONAL,INDUSTRY,04 - Kootenay,Southern Interior,ON,1989-05-16,
Rolla 213 Road,Rolla 213 Road,E304684,,494,Rolla,55.90761,-120.16901,708,NON OPERATIONAL,ENV,07 - Omineca-Peace,,OFF,2015-12-15,
Rolla 213 Road_60,Rolla 213 Road,E304684,,496,Rolla,55.90761,-120.16901,708,NON OPERATIONAL,ENV,07 - Omineca-Peace,,OFF,2015-12-15,
Rolla MAML,Rolla MAML,E282769,,272,Rolla,55.8997,-120.1869,695,MOBILE NON OPERATIONAL,ENV,07 - Omineca-Peace,,OFF,2010-07-20,
Royal Oak Hydro Mobile,Royal Oak Hydro Mobile,E222012,,301,Victoria,48.4906,-123.3883,25,NON OPERATIONAL,ENV,01 - Vancouver Island,,OFF,1995-07-26,
Rumble Beach Firehall_60,Rumble Beach Firehall,E294391,,446,Port Alice,50.4267123,-127.488127,37,NON OPERATIONAL,INDUSTRY,01 - Vancouver Island,,OFF,2013-08-01,
Rumble Beach Hospital,Rumble Beach Hospital,E221821,107000,164,Port Alice,50.4264,-127.4881,3,NON OPERATIONAL,INDUSTRY,01 - Vancouver Island,,OFF,1995-01-02,2015-06-23
Salmon Arm Hospital,Salmon Arm Hospital,E233344,,347,Salmon Arm,50.7017,-119.2236,350,NON OPERATIONAL,ENV,03 - Southern Interior,,OFF,1998-06-08,
Saturna Met,Saturna,M101110,,302,Saturna,48.7744,-123.17,445,NON OPERATIONAL,ENV,01 - Vancouver Island,,OFF,1985-11-07,
Saturna Pike,Saturna Pike,M101005,102001,303,Saturna,48.7744,-123.17,478,NON OPERATIONAL,ENV,01 - Vancouver Island,,OFF,1992-08-10,2002-01-03
Scotties Marina,Scotties Marina,0440403,,167,Castlegar,49.3427,-117.8297,502,OPERATIONAL,INDUSTRY,04 - Kootenay,Southern Interior,ON,1992-03-07,
Sechelt Trail Bay Mill,Sechelt Trail Bay Mill,E237978,,216,Sechelt,49.471913,-123.759499,15,NON CONTINUOUS,ENV,02 - Lower Mainland,,OFF,2009-11-17,
Seymour Falls,Seymour Falls,E231001,,254,Vancouver,49.44,-122.9714,220,METRO VANCOUVER NON OPERATIONAL,MVRD,02 - Lower Mainland,,OFF,1985-01-01,
Shawnigan Lake Discovery Elementary,Shawnigan Lake Discovery Elementary,E303793,,477,Victoria,48.652778,-123.651944,145,E-BAM NON-OPERATIONAL,ENV,01 - Vancouver Island,,OFF,2015-09-16,2016-06-02
Skookumchuck,Skookumchuck,M115024,,366,Cranbrook,49.8369,-115.7458,783,NON OPERATIONAL,ENV,04 - Kootenay,,OFF,1987-10-11,
Skookumchuck Farstad Way,Skookumchuck Farstad Way,E254190,,422,Cranbrook,49.905404,-115.755613,746,OPERATIONAL,INDUSTRY,04 - Kootenay,Southern Interior,ON,2011-08-26,
Skookumchuck Farstad Way_60,Skookumchuck Farstad Way,E254190,,543,Cranbrook,49.905404,-115.755613,746,OPERATIONAL,INDUSTRY,04 - Kootenay,Southern Interior,ON,2018-02-09,
Skookumchuck Johnson Lake,Skookumchuck Johnson Lake,E207914,,367,Cranbrook,49.9547,-115.7594,828,NON OPERATIONAL,ENV,04 - Kootenay,,OFF,1989-10-11,
Skookumchuck Moan Road,Skookumchuck Moan Road,E221953,,368,Cranbrook,49.8233,-115.7667,783,NON OPERATIONAL,INDUSTRY,04 - Kootenay,,OFF,1995-06-21,
Smithers Muheim Memorial,Smithers Muheim Memorial,E315110,102402,560,Smithers,54.7784861,-127.168542,496,OPERATIONAL,ENV,06 - Skeena,Central Interior,ON,2018-12-18,
Smithers Muheim Memorial_60,Smithers Muheim Memorial,E315110,102402,563,Smithers,54.7784861,-127.168542,496,OPERATIONAL,ENV,06 - Skeena,Central Interior,ON,2019-02-01,
Smithers St Josephs,Smithers St Josephs,E206589,102401,168,Smithers,54.783308,-127.177324,495,NON OPERATIONAL,ENV,06 - Skeena,,OFF,1997-03-06,2018-12-07
Smithers St Josephs_60,Smithers St Josephs,E206589,102401,171,Smithers,54.783,-127.1775,481,NON OPERATIONAL,ENV,06 - Skeena,,OFF,1994-11-21,2018-12-08
South Langley Met,South Langley,M110511,,337,Langley,49.0042,-122.5611,80,NON OPERATIONAL,ENV,02 - Lower Mainland,,OFF,1985-06-19,
Spallumcheen Township Office,Spallumcheen Township Office,E253330,,222,Spallumcheen,50.4053,-119.2175,420,NON OPERATIONAL,ENV,03 - Southern Interior,,OFF,2010-02-16,
SPARE_MaintainView,SPARE_MaintainView,544,,544,Powell River,49.889305,-124.562349,,OPERATIONAL,ENV,02 - Lower Mainland,,OFF,2018-12-27,
Sparwood Centennial Square,Sparwood Centennial Square,E262137,103021,584,Sparwood,49.7327857,-114.88766,1138,OPERATIONAL,INDUSTRY,04 - Kootenay,Southern Interior,ON,2021-12-01,
Squamish Elementary,Squamish Elementary,E304570,101603,491,Squamish,49.70516,-123.15133,6,OPERATIONAL,ENV,02 - Lower Mainland,Georgia Strait,ON,2015-12-17,
Squamish Elementary_60,Squamish Elementary,E304570,101603,493,Squamish,49.70516,-123.15133,6,OPERATIONAL,ENV,02 - Lower Mainland,Georgia Strait,ON,2015-12-17,
Squamish Gov't Bldg,Squamish Gov't Bldg,0310172,101601,187,Squamish,49.700098,-123.154216,20,NON OPERATIONAL,ENV,02 - Lower Mainland,,OFF,1984-01-11,
Squamish_60,Squamish,M104270,,173,Squamish,49.7003,-123.1536,10,NON OPERATIONAL,ENV,02 - Lower Mainland,,OFF,1985-05-17,
Station 579,Station 579,Station 579,,579,100 Mile House,0,0,0,None,None,None,,OFF,2020-09-22,
Stewart,Stewart,E240336,,236,Stewart,55.9419,-129.9889,0,NON OPERATIONAL,ENV,06 - Skeena,,OFF,2010-03-15,
Stewart Youth Centre Met_60,Stewart Youth Centre,E292249,,435,Stewart,55.9381,-129.985,13,OPERATIONAL,ENV,06 - Skeena,Coastal,ON,2013-02-01,
Strathnaver Meadowbank_60,Strathnaver Meadowbank,E278429,,128,Strathnaver,53.3002,-122.5214,655,NON OPERATIONAL,INDUSTRY,07 - Omineca-Peace,,OFF,2010-02-02,
Strathnaver Pellet Plant_60,Strathnaver Pellet Plant,E295549,107200,449,Strathnaver,53.3072,-122.5331,674,NON OPERATIONAL,INDUSTRY,07 - Omineca-Peace,,OFF,2013-10-30,
Sumas,Sumas,M110512,,338,Sumas,49.0347,-122.1597,6,NON OPERATIONAL,ENV,02 - Lower Mainland,,OFF,1985-06-27,
Summerland Municipal Hall,Summerland Municipal Hall,E270644,,223,Summerland,49.6108,-119.6817,480,NON OPERATIONAL,ENV,03 - Southern Interior,,OFF,2010-02-16,
Surrey East,Surrey East,E206271,,247,Surrey,49.1328,-122.6942,79,METRO VANCOUVER,MVRD,02 - Lower Mainland,Lower Fraser Valley,ON,1984-01-04,
Surrey Echo,Surrey Echo,M110513,,339,Surrey,49.1897,-122.7975,82,NON OPERATIONAL,ENV,02 - Lower Mainland,,OFF,1985-05-30,
Taylor Farm 247 Road,Taylor Farm 247 Road,E326011,,582,Taylor,56.1532,-120.61,620,OPERATIONAL,INDUSTRY,07 - Omineca-Peace,Northeast,ON,2021-09-17,
Taylor Farmhouse,Taylor Farmhouse,0770707,,409,Taylor,56.1667,-120.675,0,NON OPERATIONAL,INDUSTRY,07 - Omineca-Peace,,OFF,1993-01-04,
Taylor Lone Wolf Golf Course,Taylor Lone Wolf Golf Course,E304685,,497,Taylor,56.16013,-120.67594,488,NON OPERATIONAL,ENV,07 - Omineca-Peace,,OFF,2016-01-27,
Taylor Lone Wolf Golf Course_60,Taylor Lone Wolf Golf Course,E304685,,499,Taylor,56.16013,-120.67594,488,NON OPERATIONAL,ENV,07 - Omineca-Peace,,OFF,2016-01-26,
Taylor South Hill,Taylor South Hill,E234230,104302,580,Taylor,56.105871,-120.662779,689,OPERATIONAL,INDUSTRY,07 - Omineca-Peace,Northeast,ON,2020-09-22,
Taylor South Hill_60,Taylor South Hill,E234230,104302,176,Taylor,56.105871,-120.662779,689,NON OPERATIONAL,INDUSTRY,07 - Omineca-Peace,,OFF,1998-03-02,
Taylor Townsite,Taylor Townsite,0770708,104301,179,Taylor,56.150186,-120.686985,474,OPERATIONAL,INDUSTRY,07 - Omineca-Peace,Northeast,ON,1993-04-01,
Taylor Willow Drive,Taylor Willow Drive,Taylor OGC CAMEL,,556,Taylor,56.144931,-120.678956,0,BC OGC MOBILE,BC OGC,07 - Omineca-Peace,,OFF,2018-09-19,
Taylor Willow Drive_SG,Taylor Willow Drive_SG,Taylor OGC CAMEL,,507,Taylor,56.144931,-120.678956,0,BC OGC MOBILE,BC OGC,07 - Omineca-Peace,,OFF,2013-11-01,2014-01-22
Telegraph Creek,Telegraph Creek,E233102,,391,Telegraph Creek,54.9033,-131.1611,0,NON OPERATIONAL,ENV,06 - Skeena,,OFF,1998-07-23,
Telkwa,Telkwa,E230557,104601,213,Telkwa,54.691479,-127.05434,80,NON OPERATIONAL,ENV,06 - Skeena,,OFF,2009-07-01,2015-06-24
Telkwa_60,Telkwa,E230557,104601,182,Telkwa,54.691479,-127.05434,0,OPERATIONAL,ENV,06 - Skeena,Central Interior,ON,1998-01-20,
Terrace Airport,Terrace Airport,E220621,,392,Terrace,54.4667,-128.5667,0,NON OPERATIONAL,INDUSTRY,06 - Skeena,,OFF,1994-08-06,
Terrace BC Access Centre_60,Terrace BC Access Centre,M107028,102501,185,Terrace,54.5183,-128.5975,510,NON OPERATIONAL,ENV,06 - Skeena,,OFF,1996-06-13,2015-05-06
Terrace Skeena Middle School,Terrace Skeena Middle School,E300350,102503,471,Terrace,54.52167,-128.6075,81,OPERATIONAL,ENV,06 - Skeena,Coastal,ON,2014-12-08,
Terrace Skeena Middle School_60,Terrace Skeena Middle School,E300350,102503,473,Terrace,54.52167,-128.6075,81,OPERATIONAL,ENV,06 - Skeena,Coastal,ON,2014-11-28,
Tomslake 197 Rd East,Tomslake 197 Rd East,E295891,104305,456,Tomslake,55.59015,-120.08583,765,NON OPERATIONAL,ENV,07 - Omineca-Peace,,OFF,2013-12-09,2015-11-30
Tomslake 197 Rd East Met_60,Tomslake 197 Rd East,E295891,104305,466,Tomslake,55.59015,-120.08583,765,NON OPERATIONAL,ENV,07 - Omineca-Peace,,OFF,2014-05-05,
Tomslake MAML,Tomslake MAML,E279629,,265,Dawson Creek,55.5564,-120.0814,0,MOBILE NON OPERATIONAL,ENV,07 - Omineca-Peace,,OFF,2010-05-14,
Trail Aquatic Centre,Trail Aquatic Centre,E269123,,186,Trail,49.0955,-117.6972,486,NON OPERATIONAL,ENV,04 - Kootenay,,OFF,2007-09-10,2010-02-25
Trail Butler Park,Trail Butler Park,0250009,102201,190,Trail,49.096218,-117.697828,422,OPERATIONAL,INDUSTRY,04 - Kootenay,Southern Interior,ON,1972-01-03,
Trail Butler Park Met_60,Trail Butler Park,0250009,102201,189,Trail,49.096218,-117.697828,423,OPERATIONAL,INDUSTRY,04 - Kootenay,Southern Interior,ON,1985-10-17,
Trail Columbia Gardens Airport,Trail Columbia Gardens Airport,0260012,102210,264,Trail,49.046405,-117.60711,428,OPERATIONAL,INDUSTRY,04 - Kootenay,Southern Interior,ON,2010-06-05,
Trail Columbia Gardens Airport_60,Trail Columbia Gardens Airport,E237758,,192,Trail,49.046405,-117.60711,428,OPERATIONAL,INDUSTRY,04 - Kootenay,Southern Interior,ON,1999-06-23,
Trail Downtown,Trail Downtown,0260010,,369,Trail,49.0953,-117.6508,417,NON OPERATIONAL,INDUSTRY,04 - Kootenay,,OFF,1982-01-01,
Trail Glenmerry,Trail Glenmerry,0260026,,370,Trail,49.0967,-117.6686,458,NON OPERATIONAL,INDUSTRY,04 - Kootenay,,OFF,1986-12-24,
Trail Hospital,Trail Hospital,0260023,,371,Trail,49.1031,-117.6833,457,NON OPERATIONAL,INDUSTRY,04 - Kootenay,,OFF,1995-01-07,
Trail Oasis,Trail Oasis,0260022,,372,Trail,49.1331,-117.7456,555,NON OPERATIONAL,INDUSTRY,04 - Kootenay,,OFF,1982-01-01,
Trail West,Trail West,E222141,,373,Trail,49.0936,-117.7014,488,NON OPERATIONAL,INDUSTRY,04 - Kootenay,,OFF,1995-05-21,
Tsawwassen,Tsawwassen,E283549,,273,Delta,49.0099,-123.082,52,METRO VANCOUVER,MVRD,02 - Lower Mainland,Lower Fraser Valley,ON,2010-04-08,
Tumbler Ridge Lions Flatbed Creek Campground,Tumbler Ridge Lions Flatbed Creek Campground,Tumbler Ridge OGC CAMEL,,509,Tumbler Ridge,55.119369,-121.019111,0,BC OGC MOBILE,BC OGC,07 - Omineca-Peace,,OFF,2014-07-07,2014-09-22
Ucluelet Amphitrite Point,Ucluelet Amphitrite Point,E282169,106800,266,Ucluelet,48.921799,-125.541209,14,NON OPERATIONAL,ENV,01 - Vancouver Island,,OFF,2010-05-14,2017-07-18
Ucluelet Amphitrite Point Met_60,Ucluelet Amphitrite Point,E282169,106800,277,Ucluelet,48.921799,-125.541209,14,NON OPERATIONAL,ENV,01 - Vancouver Island,,OFF,2010-09-24,
Valemount,Valemount,E234293,106101,440,Valemount,52.832459,-119.269821,800,OPERATIONAL,ENV,07 - Omineca-Peace,Central Interior,ON,2013-03-01,
Valemount Met_60,Valemount,E234293,106101,209,Valemount,52.833,-119.268,792,OPERATIONAL,ENV,07 - Omineca-Peace,Central Interior,ON,2008-11-13,
Vancouver Clark Drive,Vancouver Clark Drive,E316370,,565,Vancouver,49.26029,-123.077811,29,METRO VANCOUVER,MVRD,02 - Lower Mainland,Lower Fraser Valley,ON,2018-01-02,
Vancouver Clark Drive Met,Vancouver Clark Drive,E316370,,577,Vancouver,49.26029,-123.077811,29,METRO VANCOUVER,MVRD,02 - Lower Mainland,Lower Fraser Valley,ON,2020-06-10,
Vancouver International Airport #2,Vancouver International Airport #2,E232246,,259,Richmond,49.1864,-123.1522,10,METRO VANCOUVER,MVRD,02 - Lower Mainland,Lower Fraser Valley,ON,1998-01-02,
Vancouver Kitsilano,Vancouver Kitsilano,0310175,,241,Vancouver,49.2617,-123.1633,34,METRO VANCOUVER NON OPERATIONAL,MVRD,02 - Lower Mainland,,OFF,2010-03-16,
Vancouver Marpole,Vancouver Marpole,0310176,,340,Vancouver,49.2097,-123.1139,27,METRO VANCOUVER NON OPERATIONAL,MVRD,02 - Lower Mainland,,OFF,1973-01-08,
Vancouver Pandora Park,Vancouver Pandora Park,E316371,,566,Vancouver,49.282286,-123.057608,156,METRO VANCOUVER,MVRD,02 - Lower Mainland,,OFF,2019-04-24,
Vancouver Robson Square,Vancouver Robson Square,0310174,,240,Vancouver,49.2822,-123.1219,56,METRO VANCOUVER,MVRD,02 - Lower Mainland,Lower Fraser Valley,ON,1975-01-02,
Vanderhoof Courthouse,Vanderhoof Courthouse,E269223,106900,212,Vanderhoof,54.0163,-124.0061,638,OPERATIONAL,ENV,07 - Omineca-Peace,Central Interior,ON,2009-12-08,
Vanderhoof Courthouse Met_60,Vanderhoof Courthouse,E269223,106900,207,Vanderhoof,54.016476,-124.005724,637,OPERATIONAL,ENV,07 - Omineca-Peace,Central Interior,ON,2007-05-10,
Vernon Airport,Vernon Airport,E325271,,581,Vernon,50.247119,-119.330936,346,E-BAM OPERATIONAL,ENV,03 - Southern Interior,Southern Interior,ON,2021-07-15,
Vernon City Hall Mobile,Vernon City Hall Mobile,E222853,,348,Vernon,50.2661,-119.2708,400,NON OPERATIONAL,ENV,03 - Southern Interior,,OFF,1996-01-01,
Vernon Science Centre,Vernon Science Centre,E249492,104003,11,Vernon,50.260617,-119.270723,476,OPERATIONAL,ENV,03 - Southern Interior,Southern Interior,ON,2002-10-15,
Vernon Science Centre_60,Vernon Science Centre,E249492,104003,194,Vernon,50.260617,-119.270723,476,OPERATIONAL,ENV,03 - Southern Interior,Southern Interior,ON,2002-10-15,
Victoria Air 1,Victoria Air 1,0110000,,304,Victoria,48.4244,-123.3597,0,NON OPERATIONAL,ENV,01 - Vancouver Island,,OFF,1976-01-01,
Victoria Christopher Point_60,Victoria Christopher Point,E260701,,203,Victoria,48.3094,-123.5619,0,NON OPERATIONAL,INDUSTRY,01 - Vancouver Island,,OFF,2005-01-09,
Victoria James Bay Daniels Electronics,Victoria James Bay Daniels Electronics,E285559,100317,413,Victoria,48.4208,-123.3828,22,NON OPERATIONAL,ENV,01 - Vancouver Island,,OFF,2011-04-12,
Victoria James Bay MAML,Victoria James Bay MAML,E277063,,211,Victoria,48.418056,-123.381667,20,MOBILE NON OPERATIONAL,ENV,01 - Vancouver Island,,OFF,2009-05-19,
Victoria James Bay The Reef,Victoria James Bay The Reef,E297190,100318,460,Victoria,48.421589,-123.384311,22,NON OPERATIONAL,INDUSTRY,01 - Vancouver Island,,OFF,2014-04-02,
Victoria PAPS,Victoria PAPS,0110030,,305,Victoria,48.4239,-123.3553,22,NON OPERATIONAL,ENV,01 - Vancouver Island,,OFF,1983-01-04,
Victoria Royal Roads University,Victoria Royal Roads University,0110031,,20,Victoria,48.43,-123.4686,1,NON OPERATIONAL,INDUSTRY,01 - Vancouver Island,,OFF,1998-03-03,
Victoria Royal Roads_60,Victoria Royal Roads,0110031,,205,Victoria,48.43,-123.4686,1,NON OPERATIONAL,INDUSTRY,01 - Vancouver Island,,OFF,1998-03-03,
Victoria Topaz,Victoria Topaz,E231866,100304,4,Victoria,48.441942,-123.363165,29,OPERATIONAL,ENV,01 - Vancouver Island,Georgia Strait,ON,1998-05-01,
Victoria Topaz Met_60,Victoria Topaz,E231866,100304,8,Victoria,48.441942,-123.363165,29,OPERATIONAL,ENV,01 - Vancouver Island,Georgia Strait,ON,1998-05-01,
Warfield Elementary,Warfield Elementary,0260011,102220,283,Warfield,49.0952,-117.7469,604,OPERATIONAL,INDUSTRY,04 - Kootenay,Southern Interior,ON,2002-01-03,
Warfield Elementary Met_60,Warfield Elementary,0260011,102220,196,Warfield,49.095439,-117.74683,610,OPERATIONAL,INDUSTRY,04 - Kootenay,Southern Interior,ON,1982-01-01,
Wells,Wells,M109011,,377,Wells,53.0983,-123.5786,1207,NON OPERATIONAL,ENV,05 - Cariboo,,OFF,1990-07-25,
West Vancouver Lions Gate,West Vancouver Lions Gate,0310180,,341,West Vancouver,49.3181,-123.1347,15,METRO VANCOUVER NON OPERATIONAL,MVRD,02 - Lower Mainland,,OFF,1980-01-08,
Whistler Function Junction MAML,Whistler Function Junction MAML,E278652,,217,Whistler,50.0856,-123.0383,593,NON OPERATIONAL,ENV,02 - Lower Mainland,,OFF,2010-01-27,
Whistler Meadow Park,Whistler Meadow Park,E227431,105001,197,Whistler,50.144285,-122.960402,638,OPERATIONAL,ENV,02 - Lower Mainland,Georgia Strait,ON,2001-04-24,
Williams Lake 168 Mile Road,Williams Lake 168 Mile Road,E229457,,229,Williams Lake,51.6461,-121.2937,0,NON OPERATIONAL,ENV,05 - Cariboo,,OFF,2010-02-16,
Williams Lake Canadian Tire Met_60,Williams Lake Canadian Tire,E248623,,199,Williams Lake,52.1175,-122.1313,578,OPERATIONAL,ENV,05 - Cariboo,,OFF,2002-06-13,
Williams Lake Columneetza School,Williams Lake Columneetza School,0550502,102701,16,Williams Lake,52.14428,-122.150391,631,OPERATIONAL,ENV,05 - Cariboo,Central Interior,ON,1992-04-15,
Williams Lake Columneetza School_60,Williams Lake Columneetza School,0550502,102701,549,Williams Lake,52.14428,-122.150391,631,OPERATIONAL,ENV,05 - Cariboo,Central Interior,ON,2018-08-01,
Williams Lake CRD Library,Williams Lake CRD Library,E248797,102706,200,Williams Lake,52.13083,-122.14222,609,NON OPERATIONAL,ENV,05 - Cariboo,,OFF,2002-07-26,2014-06-17
Williams Lake Skyline School,Williams Lake Skyline School,0605020,,378,Williams Lake,52.1161,-122.1325,650,NON OPERATIONAL,ENV,05 - Cariboo,,OFF,2001-08-08,
Williams Lake Water Tower,Williams Lake Water Tower,E222242,,230,Williams Lake,51.6461,-121.2937,0,NON OPERATIONAL,ENV,05 - Cariboo,,OFF,2010-02-16,
